{
  "version": 0.6,
  "generator": "Overpass API 0.7.56.7 b85c4387",
  "osm3s": {
    "timestamp_osm_base": "2020-09-25T15:08:02Z",
    "copyright": "The data included in this document is from www.openstreetmap.org. The data is made available under ODbL."
  },
  "elements": [
    {
      "type": "node",
      "id": 20849686,
      "lat": 51.4087329,
      "lon": -0.3323747,
      "tags": {
        "amenity": "toilets",
        "created_by": "JOSM"
      }
    },
    {
      "type": "node",
      "id": 20910215,
      "lat": 51.4059121,
      "lon": -0.3360281,
      "tags": {
        "amenity": "toilets"
      }
    },
    {
      "type": "node",
      "id": 25475748,
      "lat": 51.5233931,
      "lon": -0.1194082,
      "tags": {
        "amenity": "toilets",
        "disused": "yes",
        "note": "currently closed"
      }
    },
    {
      "type": "node",
      "id": 25534499,
      "lat": 51.4947547,
      "lon": -0.1322335,
      "tags": {
        "amenity": "toilets"
      }
    },
    {
      "type": "node",
      "id": 26049416,
      "lat": 51.4515966,
      "lon": 0.0508674,
      "tags": {
        "amenity": "toilets"
      }
    },
    {
      "type": "node",
      "id": 26819248,
      "lat": 51.5159737,
      "lon": -0.1885334,
      "tags": {
        "amenity": "toilets",
        "diaper": "yes",
        "fee": "no",
        "female": "yes",
        "male": "yes",
        "name": "Queensway",
        "opening_hours": "Mo-Su 07:30-00:30",
        "operator": "City of Westminster"
      }
    },
    {
      "type": "node",
      "id": 27586604,
      "lat": 51.5835933,
      "lon": 0.3535967,
      "tags": {
        "amenity": "toilets"
      }
    },
    {
      "type": "node",
      "id": 28371507,
      "lat": 51.5481113,
      "lon": 0.445912,
      "tags": {
        "amenity": "toilets"
      }
    },
    {
      "type": "node",
      "id": 29942017,
      "lat": 51.5543381,
      "lon": 0.4251237,
      "tags": {
        "amenity": "toilets"
      }
    },
    {
      "type": "node",
      "id": 30442251,
      "lat": 51.4749456,
      "lon": -0.3005302,
      "tags": {
        "amenity": "toilets",
        "created_by": "Potlatch 0.6a",
        "wheelchair": "yes"
      }
    },
    {
      "type": "node",
      "id": 30442336,
      "lat": 51.4728485,
      "lon": -0.2929957,
      "tags": {
        "amenity": "toilets",
        "created_by": "JOSM",
        "wheelchair": "yes"
      }
    },
    {
      "type": "node",
      "id": 30581735,
      "lat": 51.4815655,
      "lon": -0.2978537,
      "tags": {
        "amenity": "toilets",
        "created_by": "Potlatch 0.6a",
        "wheelchair": "yes"
      }
    },
    {
      "type": "node",
      "id": 33378270,
      "lat": 51.4524003,
      "lon": -0.1099907,
      "tags": {
        "amenity": "toilets",
        "created_by": "Potlatch 0.4c"
      }
    },
    {
      "type": "node",
      "id": 36446497,
      "lat": 51.5195757,
      "lon": 0.2547814,
      "tags": {
        "amenity": "toilets"
      }
    },
    {
      "type": "node",
      "id": 53447471,
      "lat": 51.5412199,
      "lon": -0.0592065,
      "tags": {
        "amenity": "toilets",
        "created_by": "Potlatch 0.5d"
      }
    },
    {
      "type": "node",
      "id": 54070004,
      "lat": 51.559457,
      "lon": -0.1518909,
      "tags": {
        "amenity": "toilets"
      }
    },
    {
      "type": "node",
      "id": 60460567,
      "lat": 51.47427,
      "lon": -0.092829,
      "tags": {
        "amenity": "toilets",
        "female": "yes",
        "male": "yes",
        "name": "Camberwell Green",
        "opening_hours": "24/7",
        "wheelchair": "limited"
      }
    },
    {
      "type": "node",
      "id": 207145549,
      "lat": 51.4782814,
      "lon": -0.2906682,
      "tags": {
        "amenity": "toilets",
        "created_by": "Potlatch 0.6a",
        "wheelchair": "yes"
      }
    },
    {
      "type": "node",
      "id": 235424107,
      "lat": 51.5049358,
      "lon": -0.1596237,
      "tags": {
        "amenity": "toilets",
        "fee": "no"
      }
    },
    {
      "type": "node",
      "id": 239713872,
      "lat": 51.5128382,
      "lon": -0.1607747,
      "tags": {
        "amenity": "toilets"
      }
    },
    {
      "type": "node",
      "id": 243834668,
      "lat": 51.4904026,
      "lon": -0.3516626,
      "tags": {
        "amenity": "toilets"
      }
    },
    {
      "type": "node",
      "id": 247049800,
      "lat": 51.4814709,
      "lon": -0.0922411,
      "tags": {
        "amenity": "toilets",
        "created_by": "JOSM"
      }
    },
    {
      "type": "node",
      "id": 247324371,
      "lat": 51.510153,
      "lon": -0.186958,
      "tags": {
        "amenity": "toilets",
        "layer": "-1"
      }
    },
    {
      "type": "node",
      "id": 249497043,
      "lat": 51.5479572,
      "lon": 0.4459114,
      "tags": {
        "amenity": "toilets"
      }
    },
    {
      "type": "node",
      "id": 252934371,
      "lat": 51.536241,
      "lon": -0.1024704,
      "tags": {
        "access": "yes",
        "amenity": "toilets",
        "changing_table": "no",
        "charge": "\u00a30.20",
        "fee": "yes",
        "opening_hours": "24/7",
        "payment:coins": "only",
        "toilets:disposal": "flush",
        "toilets:wheelchair": "yes",
        "unisex": "yes",
        "wheelchair": "yes"
      }
    },
    {
      "type": "node",
      "id": 253100929,
      "lat": 51.4698778,
      "lon": -0.3582539,
      "tags": {
        "amenity": "toilets",
        "created_by": "JOSM"
      }
    },
    {
      "type": "node",
      "id": 253369110,
      "lat": 51.3661622,
      "lon": -0.1602824,
      "tags": {
        "amenity": "toilets",
        "created_by": "JOSM"
      }
    },
    {
      "type": "node",
      "id": 255396286,
      "lat": 51.51433,
      "lon": -0.0562347,
      "tags": {
        "amenity": "toilets"
      }
    },
    {
      "type": "node",
      "id": 255684945,
      "lat": 51.5141839,
      "lon": -0.201334,
      "tags": {
        "amenity": "toilets"
      }
    },
    {
      "type": "node",
      "id": 256113440,
      "lat": 51.4058285,
      "lon": 0.1775002,
      "tags": {
        "amenity": "toilets",
        "layer": "1",
        "wheelchair": "yes"
      }
    },
    {
      "type": "node",
      "id": 256489992,
      "lat": 51.3636259,
      "lon": 0.1969253,
      "tags": {
        "amenity": "toilets"
      }
    },
    {
      "type": "node",
      "id": 257422992,
      "lat": 51.5176064,
      "lon": -0.1186281,
      "tags": {
        "amenity": "toilets"
      }
    },
    {
      "type": "node",
      "id": 261632729,
      "lat": 51.2917863,
      "lon": 0.3061222,
      "tags": {
        "amenity": "toilets"
      }
    },
    {
      "type": "node",
      "id": 262443427,
      "lat": 51.5613257,
      "lon": -0.0864985,
      "tags": {
        "amenity": "toilets",
        "opening_hours:covid19": "12:00-21:00",
        "wheelchair": "yes"
      }
    },
    {
      "type": "node",
      "id": 262903620,
      "lat": 51.4944406,
      "lon": 0.0643276,
      "tags": {
        "amenity": "toilets",
        "opening_hours": "07:00-18:00",
        "operator": "Greenwich Council"
      }
    },
    {
      "type": "node",
      "id": 266819600,
      "lat": 51.4968424,
      "lon": -0.2147469,
      "tags": {
        "amenity": "toilets",
        "fee": "no",
        "note": "Automated toilets"
      }
    },
    {
      "type": "node",
      "id": 267188423,
      "lat": 51.6319909,
      "lon": -0.1755956,
      "tags": {
        "amenity": "toilets",
        "created_by": "Potlatch 0.9b"
      }
    },
    {
      "type": "node",
      "id": 267586975,
      "lat": 51.4359547,
      "lon": -0.5120865,
      "tags": {
        "amenity": "toilets"
      }
    },
    {
      "type": "node",
      "id": 268274013,
      "lat": 51.6096039,
      "lon": -0.4992519,
      "tags": {
        "access": "customers",
        "amenity": "toilets",
        "toilets": "yes"
      }
    },
    {
      "type": "node",
      "id": 269182939,
      "lat": 51.3253113,
      "lon": 0.3417055,
      "tags": {
        "amenity": "toilets"
      }
    },
    {
      "type": "node",
      "id": 269610169,
      "lat": 51.6876807,
      "lon": -0.2222177,
      "tags": {
        "amenity": "toilets",
        "toilets:wheelchair": "yes",
        "wheelchair": "yes"
      }
    },
    {
      "type": "node",
      "id": 269890771,
      "lat": 51.4950164,
      "lon": -0.0549786,
      "tags": {
        "amenity": "toilets"
      }
    },
    {
      "type": "node",
      "id": 270691871,
      "lat": 51.428183,
      "lon": -0.1684662,
      "tags": {
        "access": "no",
        "amenity": "toilets",
        "disabled": "yes"
      }
    },
    {
      "type": "node",
      "id": 270748491,
      "lat": 51.5433675,
      "lon": -0.3235723,
      "tags": {
        "amenity": "toilets"
      }
    },
    {
      "type": "node",
      "id": 273460550,
      "lat": 51.4488678,
      "lon": -0.1067566,
      "tags": {
        "amenity": "toilets",
        "female": "no",
        "male": "yes"
      }
    },
    {
      "type": "node",
      "id": 275331275,
      "lat": 51.7031758,
      "lon": -0.0215693,
      "tags": {
        "amenity": "toilets"
      }
    },
    {
      "type": "node",
      "id": 280885803,
      "lat": 51.4682771,
      "lon": -0.066871,
      "tags": {
        "amenity": "toilets",
        "created_by": "Potlatch 0.10"
      }
    },
    {
      "type": "node",
      "id": 281355327,
      "lat": 51.3061546,
      "lon": 0.2305557,
      "tags": {
        "amenity": "toilets"
      }
    },
    {
      "type": "node",
      "id": 281580306,
      "lat": 51.4486164,
      "lon": -0.106439,
      "tags": {
        "amenity": "toilets",
        "female": "yes",
        "male": "no"
      }
    },
    {
      "type": "node",
      "id": 281841123,
      "lat": 51.4569988,
      "lon": -0.1457414,
      "tags": {
        "amenity": "toilets"
      }
    },
    {
      "type": "node",
      "id": 281851493,
      "lat": 51.5256686,
      "lon": -0.153889,
      "tags": {
        "amenity": "toilets",
        "created_by": "Potlatch 0.10b",
        "wheelchair": "yes"
      }
    },
    {
      "type": "node",
      "id": 282569729,
      "lat": 51.5133597,
      "lon": -0.1131758,
      "tags": {
        "access": "yes",
        "amenity": "toilets",
        "toilets:wheelchair": "no",
        "unisex": "yes",
        "wheelchair": "no",
        "wheelchair:description": "downstairs"
      }
    },
    {
      "type": "node",
      "id": 283162497,
      "lat": 51.5279178,
      "lon": 0.0049809,
      "tags": {
        "amenity": "toilets"
      }
    },
    {
      "type": "node",
      "id": 286480244,
      "lat": 51.4451323,
      "lon": -0.1515175,
      "tags": {
        "amenity": "toilets",
        "created_by": "Potlatch 0.10b"
      }
    },
    {
      "type": "node",
      "id": 287372973,
      "lat": 51.2552368,
      "lon": -0.3223025,
      "tags": {
        "amenity": "toilets",
        "name": "Ryka's Car Park",
        "toilets:wheelchair": "yes",
        "wheelchair": "yes",
        "wheelchair:description": "Door opens outward. RADAR Key, but often needs second key, from cafe 25m. 50m from dedicated Blue Badge spaces in car park."
      }
    },
    {
      "type": "node",
      "id": 287373456,
      "lat": 51.2490481,
      "lon": -0.3133515,
      "tags": {
        "amenity": "toilets",
        "fee": "no",
        "name": "Box Hill NT",
        "note": "Baby change in both male and female areas",
        "operator": "National Trust",
        "toilets:wheelchair": "yes",
        "wheelchair": "yes",
        "wheelchair:description": "Step-free from parking. Door opens outward. Automatic lights. No alarm system. Baby changing in male & female toilets."
      }
    },
    {
      "type": "node",
      "id": 288562205,
      "lat": 51.4960194,
      "lon": -0.2637003,
      "tags": {
        "amenity": "toilets"
      }
    },
    {
      "type": "node",
      "id": 288980690,
      "lat": 51.502968,
      "lon": -0.2803045,
      "tags": {
        "amenity": "toilets",
        "fee": "yes",
        "female": "no",
        "male": "yes",
        "note": "Pay, Men only",
        "wheelchair": "limited"
      }
    },
    {
      "type": "node",
      "id": 288980719,
      "lat": 51.5084637,
      "lon": -0.2755069,
      "tags": {
        "amenity": "toilets",
        "note": "Outside Redback, Streetside"
      }
    },
    {
      "type": "node",
      "id": 290531070,
      "lat": 51.5296539,
      "lon": -0.5368216,
      "tags": {
        "amenity": "toilets"
      }
    },
    {
      "type": "node",
      "id": 290985718,
      "lat": 51.4808913,
      "lon": -0.0078373,
      "tags": {
        "amenity": "toilets",
        "female": "yes",
        "male": "yes",
        "name": "King William Walk",
        "note": "underground",
        "wheelchair": "no"
      }
    },
    {
      "type": "node",
      "id": 291647639,
      "lat": 51.4219664,
      "lon": -0.1195403,
      "tags": {
        "amenity": "toilets",
        "wheelchair": "yes"
      }
    },
    {
      "type": "node",
      "id": 291667176,
      "lat": 51.3822932,
      "lon": -0.0691655,
      "tags": {
        "amenity": "toilets",
        "created_by": "Potlatch 0.10b"
      }
    },
    {
      "type": "node",
      "id": 293389189,
      "lat": 51.5372226,
      "lon": -0.1574468,
      "tags": {
        "amenity": "toilets",
        "created_by": "Potlatch 0.10b"
      }
    },
    {
      "type": "node",
      "id": 297701210,
      "lat": 51.6131726,
      "lon": -0.1583019,
      "tags": {
        "amenity": "toilets",
        "created_by": "Potlatch 0.10b"
      }
    },
    {
      "type": "node",
      "id": 298007677,
      "lat": 51.421835,
      "lon": -0.3668122,
      "tags": {
        "amenity": "toilets",
        "name": "Accesible",
        "wheelchair": "yes"
      }
    },
    {
      "type": "node",
      "id": 298288065,
      "lat": 51.392321,
      "lon": -0.304565,
      "tags": {
        "access": "yes",
        "amenity": "toilets",
        "changing_table": "no",
        "level": "0",
        "male": "yes",
        "name": "Surbiton Station",
        "wheelchair": "no"
      }
    },
    {
      "type": "node",
      "id": 303798311,
      "lat": 51.4751704,
      "lon": -0.336621,
      "tags": {
        "amenity": "toilets",
        "note": "tin can style"
      }
    },
    {
      "type": "node",
      "id": 317651332,
      "lat": 51.3125875,
      "lon": -0.2479953,
      "tags": {
        "amenity": "toilets",
        "name": "Epsom downs",
        "toilets:access": "Yes",
        "toilets:wheelchair": "Yes"
      }
    },
    {
      "type": "node",
      "id": 321223692,
      "lat": 51.5680823,
      "lon": -0.1850038,
      "tags": {
        "access": "yes",
        "amenity": "toilets",
        "fee": "no"
      }
    },
    {
      "type": "node",
      "id": 321311369,
      "lat": 51.4834352,
      "lon": -0.2647904,
      "tags": {
        "amenity": "toilets",
        "opening_hours": "\"rarely open\""
      }
    },
    {
      "type": "node",
      "id": 323990551,
      "lat": 51.5300139,
      "lon": -0.2930826,
      "tags": {
        "amenity": "toilets",
        "operator": "TFL"
      }
    },
    {
      "type": "node",
      "id": 329105463,
      "lat": 51.5908323,
      "lon": -0.4330959,
      "tags": {
        "amenity": "toilets"
      }
    },
    {
      "type": "node",
      "id": 331275122,
      "lat": 51.5641856,
      "lon": -0.1735859,
      "tags": {
        "amenity": "toilets"
      }
    },
    {
      "type": "node",
      "id": 331289045,
      "lat": 51.5715869,
      "lon": -0.166981,
      "tags": {
        "amenity": "toilets"
      }
    },
    {
      "type": "node",
      "id": 331922282,
      "lat": 51.5720875,
      "lon": -0.1941982,
      "tags": {
        "access": "public",
        "amenity": "toilets",
        "fee": "no",
        "female": "yes",
        "male": "no",
        "note": "confirmed open 201703"
      }
    },
    {
      "type": "node",
      "id": 332492772,
      "lat": 51.4050572,
      "lon": -0.3379018,
      "tags": {
        "amenity": "toilets"
      }
    },
    {
      "type": "node",
      "id": 332925681,
      "lat": 51.5692691,
      "lon": -0.1436025,
      "tags": {
        "amenity": "toilets"
      }
    },
    {
      "type": "node",
      "id": 333257433,
      "lat": 51.5412566,
      "lon": 0.0459243,
      "tags": {
        "amenity": "toilets",
        "created_by": "Potlatch 0.10f"
      }
    },
    {
      "type": "node",
      "id": 333300005,
      "lat": 51.6526229,
      "lon": -0.0863586,
      "tags": {
        "amenity": "toilets"
      }
    },
    {
      "type": "node",
      "id": 336369392,
      "lat": 51.5550196,
      "lon": -0.1101717,
      "tags": {
        "amenity": "toilets",
        "fixme": "verify -- not shown as toilet on park map http://queenelizabetholympicpark.co.uk/the-park/plan-your-visit/interactive-park-map"
      }
    },
    {
      "type": "node",
      "id": 338472531,
      "lat": 51.5180079,
      "lon": -0.1100686,
      "tags": {
        "amenity": "toilets"
      }
    },
    {
      "type": "node",
      "id": 339925126,
      "lat": 51.5082227,
      "lon": -0.1285642,
      "tags": {
        "amenity": "toilets",
        "name": "Trafalgar Square Toilets",
        "opening_hours": "Mo-Su 10:00-20:00",
        "wheelchair": "yes"
      }
    },
    {
      "type": "node",
      "id": 344521109,
      "lat": 51.503634,
      "lon": -0.1133529,
      "tags": {
        "addr:city": "London",
        "addr:housename": "London Waterloo Station",
        "addr:postcode": "SE1 8SW",
        "amenity": "toilets",
        "changing_table": "yes",
        "fee": "no",
        "female": "yes",
        "level": "1",
        "male": "no",
        "name": "Waterloo Station",
        "opening_hours": "24/7",
        "toilets:wheelchair": "yes",
        "wheelchair": "yes"
      }
    },
    {
      "type": "node",
      "id": 345397964,
      "lat": 51.3644212,
      "lon": -0.191795,
      "tags": {
        "amenity": "toilets",
        "created_by": "Potlatch 0.10f"
      }
    },
    {
      "type": "node",
      "id": 346352276,
      "lat": 51.5046837,
      "lon": -0.1300195,
      "tags": {
        "amenity": "toilets",
        "payment:apple_pay": "yes",
        "payment:cash": "yes",
        "payment:google_pay": "yes",
        "payment:paywave": "yes"
      }
    },
    {
      "type": "node",
      "id": 348814978,
      "lat": 51.510804,
      "lon": -0.1299655,
      "tags": {
        "amenity": "toilets",
        "female": "no",
        "layer": "-1",
        "male": "yes",
        "wheelchair": "no"
      }
    },
    {
      "type": "node",
      "id": 350409063,
      "lat": 51.510872,
      "lon": -0.085805,
      "tags": {
        "access": "no",
        "amenity": "toilets",
        "fee": "yes",
        "female": "yes",
        "level": "-1",
        "male": "yes",
        "name": "Toilets - CLOSED",
        "note": "Accessed via steps in traffic island",
        "toilets:wheelchair": "no",
        "wheelchair": "no"
      }
    },
    {
      "type": "node",
      "id": 353890734,
      "lat": 51.4377078,
      "lon": -0.231874,
      "tags": {
        "amenity": "toilets"
      }
    },
    {
      "type": "node",
      "id": 366238452,
      "lat": 51.6191395,
      "lon": -0.1622275,
      "tags": {
        "amenity": "toilets"
      }
    },
    {
      "type": "node",
      "id": 369007992,
      "lat": 51.3860721,
      "lon": -0.2902561,
      "tags": {
        "amenity": "toilets",
        "created_by": "Potlatch 0.10f"
      }
    },
    {
      "type": "node",
      "id": 370261548,
      "lat": 51.4452359,
      "lon": -0.0786093,
      "tags": {
        "amenity": "toilets",
        "fee": "no"
      }
    },
    {
      "type": "node",
      "id": 380494795,
      "lat": 51.515633,
      "lon": -0.132367,
      "tags": {
        "amenity": "toilets",
        "male": "yes",
        "opening_hours": "Mo-Su 18:00-05:00"
      }
    },
    {
      "type": "node",
      "id": 386703361,
      "lat": 51.4529298,
      "lon": -0.2211708,
      "tags": {
        "amenity": "toilets",
        "fee": "yes",
        "female": "yes",
        "male": "yes",
        "wheelchair": "yes"
      }
    },
    {
      "type": "node",
      "id": 389681906,
      "lat": 51.5279147,
      "lon": -0.1525933,
      "tags": {
        "amenity": "toilets",
        "fee": "yes",
        "female": "yes",
        "male": "yes",
        "operator": "The Royal Parks",
        "wheelchair": "yes"
      }
    },
    {
      "type": "node",
      "id": 389688170,
      "lat": 51.5325517,
      "lon": -0.1580494,
      "tags": {
        "amenity": "toilets"
      }
    },
    {
      "type": "node",
      "id": 390986667,
      "lat": 51.4391848,
      "lon": 0.2171305,
      "tags": {
        "amenity": "toilets",
        "fee": "no"
      }
    },
    {
      "type": "node",
      "id": 399554521,
      "lat": 51.4038595,
      "lon": 0.418889,
      "tags": {
        "amenity": "toilets",
        "name": "Shorne Country Park",
        "toilets:wheelchair": "yes",
        "wheelchair": "yes"
      }
    },
    {
      "type": "node",
      "id": 410938928,
      "lat": 51.6332625,
      "lon": -0.4768633,
      "tags": {
        "amenity": "toilets",
        "fee": "no",
        "wheelchair": "yes"
      }
    },
    {
      "type": "node",
      "id": 410938929,
      "lat": 51.636671,
      "lon": -0.4762703,
      "tags": {
        "amenity": "toilets"
      }
    },
    {
      "type": "node",
      "id": 414239364,
      "lat": 51.6252845,
      "lon": -0.282868,
      "tags": {
        "amenity": "toilets"
      }
    },
    {
      "type": "node",
      "id": 430403334,
      "lat": 51.525795,
      "lon": -0.035352,
      "tags": {
        "amenity": "toilets",
        "fee": "yes",
        "female": "yes",
        "male": "yes",
        "opening_hours": "24/7",
        "wheelchair": "yes"
      }
    },
    {
      "type": "node",
      "id": 432011116,
      "lat": 51.4031467,
      "lon": -0.3695658,
      "tags": {
        "amenity": "toilets"
      }
    },
    {
      "type": "node",
      "id": 438170659,
      "lat": 51.5140187,
      "lon": -0.1260526,
      "tags": {
        "amenity": "toilets"
      }
    },
    {
      "type": "node",
      "id": 443418088,
      "lat": 51.532468,
      "lon": -0.0328813,
      "tags": {
        "amenity": "toilets",
        "fee": "yes"
      }
    },
    {
      "type": "node",
      "id": 443939741,
      "lat": 51.545494,
      "lon": -0.0562158,
      "tags": {
        "amenity": "toilets",
        "wheelchair": "yes"
      }
    },
    {
      "type": "node",
      "id": 448034590,
      "lat": 51.442452,
      "lon": 0.2591267,
      "tags": {
        "amenity": "toilets"
      }
    },
    {
      "type": "node",
      "id": 448525850,
      "lat": 51.4455574,
      "lon": 0.2154418,
      "tags": {
        "amenity": "toilets"
      }
    },
    {
      "type": "node",
      "id": 448568660,
      "lat": 51.443267,
      "lon": 0.2196098,
      "tags": {
        "amenity": "toilets"
      }
    },
    {
      "type": "node",
      "id": 459678291,
      "lat": 51.5945064,
      "lon": 0.2357036,
      "tags": {
        "amenity": "toilets",
        "fee": "0.10 GBP"
      }
    },
    {
      "type": "node",
      "id": 461686710,
      "lat": 51.3531776,
      "lon": 0.0895002,
      "tags": {
        "amenity": "toilets"
      }
    },
    {
      "type": "node",
      "id": 462008328,
      "lat": 51.5295942,
      "lon": -0.0973219,
      "tags": {
        "amenity": "toilets",
        "fee": "yes",
        "wheelchair": "yes"
      }
    },
    {
      "type": "node",
      "id": 469136361,
      "lat": 51.5476693,
      "lon": -0.0544657,
      "tags": {
        "amenity": "toilets",
        "fee": "yes",
        "note": "20p"
      }
    },
    {
      "type": "node",
      "id": 477366640,
      "lat": 51.482147,
      "lon": -0.010168,
      "tags": {
        "amenity": "toilets",
        "fee": "yes",
        "female": "yes",
        "male": "yes",
        "name": "Cutty Sark",
        "opening_hours": "24/7",
        "wheelchair": "yes"
      }
    },
    {
      "type": "node",
      "id": 477530711,
      "lat": 51.4375837,
      "lon": 0.0718831,
      "tags": {
        "amenity": "toilets",
        "toilets:wheelchair": "yes",
        "wheelchair": "yes"
      }
    },
    {
      "type": "node",
      "id": 479029658,
      "lat": 51.5463345,
      "lon": -0.0758927,
      "tags": {
        "access": "public",
        "amenity": "toilets",
        "fee": "yes",
        "name": "Toilet",
        "wheelchair": "limited",
        "wheelchair:description": "Radar key operated, room to fit a wheelchair but transfers would be difficult.  These toilets are frequently out of order."
      }
    },
    {
      "type": "node",
      "id": 482704445,
      "lat": 51.4894888,
      "lon": 0.0451704,
      "tags": {
        "amenity": "toilets"
      }
    },
    {
      "type": "node",
      "id": 491410750,
      "lat": 51.4522755,
      "lon": 0.1795366,
      "tags": {
        "amenity": "toilets"
      }
    },
    {
      "type": "node",
      "id": 497379966,
      "lat": 51.5212956,
      "lon": -0.1811493,
      "tags": {
        "amenity": "toilets",
        "opening_hours": "Mo-Su sunrise-sunset"
      }
    },
    {
      "type": "node",
      "id": 499350869,
      "lat": 51.5136431,
      "lon": -0.135737,
      "tags": {
        "amenity": "toilets",
        "wheelchair": "yes",
        "wheelchair:description:en": "The wheelchair accessible toilet is located at street level, the non-disabled toilets are located down steps and are not wheelchair accessible"
      }
    },
    {
      "type": "node",
      "id": 511645366,
      "lat": 51.5243719,
      "lon": -0.2014118,
      "tags": {
        "amenity": "toilets"
      }
    },
    {
      "type": "node",
      "id": 526883355,
      "lat": 51.6966125,
      "lon": -0.1754623,
      "tags": {
        "amenity": "toilets",
        "fee": "yes",
        "wheelchair": "yes"
      }
    },
    {
      "type": "node",
      "id": 529528541,
      "lat": 51.4361469,
      "lon": 0.3723935,
      "tags": {
        "amenity": "toilets"
      }
    },
    {
      "type": "node",
      "id": 541172777,
      "lat": 51.5747984,
      "lon": -0.3702692,
      "tags": {
        "amenity": "toilets",
        "operator": "Harrow Council"
      }
    },
    {
      "type": "node",
      "id": 552801789,
      "lat": 51.3171136,
      "lon": -0.4536992,
      "tags": {
        "addr:street": "Old Lane",
        "amenity": "toilets",
        "name": "Ockham Bites",
        "toilets:wheelchair": "no",
        "wheelchair": "no",
        "wheelchair:description": "Padlocked SHUT when cafe is closed. Therefore rated RED until I am able to check internally. RADAR Key."
      }
    },
    {
      "type": "node",
      "id": 553308759,
      "lat": 51.5176778,
      "lon": -0.0816015,
      "tags": {
        "amenity": "toilets",
        "fee": "yes",
        "female": "yes",
        "male": "yes"
      }
    },
    {
      "type": "node",
      "id": 563313189,
      "lat": 51.3999246,
      "lon": -0.0202054,
      "tags": {
        "amenity": "toilets"
      }
    },
    {
      "type": "node",
      "id": 564744078,
      "lat": 51.4800331,
      "lon": -0.1781289,
      "tags": {
        "amenity": "toilets"
      }
    },
    {
      "type": "node",
      "id": 566313868,
      "lat": 51.5117346,
      "lon": -0.1216725,
      "tags": {
        "amenity": "toilets",
        "wheelchair": "yes"
      }
    },
    {
      "type": "node",
      "id": 581143053,
      "lat": 51.5824191,
      "lon": -0.1499555,
      "tags": {
        "amenity": "toilets"
      }
    },
    {
      "type": "node",
      "id": 588175347,
      "lat": 51.5075636,
      "lon": -0.121849,
      "tags": {
        "amenity": "toilets",
        "fee": "yes",
        "name": "Embankment Toilets",
        "wheelchair": "yes"
      }
    },
    {
      "type": "node",
      "id": 596763309,
      "lat": 51.5089214,
      "lon": -0.1259481,
      "tags": {
        "amenity": "toilets",
        "description": "\"Pissoir\" Numbers 1s only!",
        "male": "yes",
        "source:description": "survey",
        "source:male": "survey"
      }
    },
    {
      "type": "node",
      "id": 639141976,
      "lat": 51.518342,
      "lon": -0.2068223,
      "tags": {
        "amenity": "toilets",
        "fee": "yes",
        "name": "Pay toilet accessable",
        "wheelchair": "yes"
      }
    },
    {
      "type": "node",
      "id": 646762510,
      "lat": 51.4174712,
      "lon": -0.0823788,
      "tags": {
        "amenity": "toilets",
        "female": "yes",
        "male": "yes",
        "supervised": "no"
      }
    },
    {
      "type": "node",
      "id": 654083991,
      "lat": 51.5473225,
      "lon": -0.0724518,
      "tags": {
        "amenity": "toilets"
      }
    },
    {
      "type": "node",
      "id": 654179353,
      "lat": 51.7202415,
      "lon": -0.1443147,
      "tags": {
        "amenity": "toilets"
      }
    },
    {
      "type": "node",
      "id": 662427640,
      "lat": 51.472008,
      "lon": -0.217745,
      "tags": {
        "amenity": "toilets",
        "female": "yes",
        "male": "yes",
        "wheelchair": "yes"
      }
    },
    {
      "type": "node",
      "id": 666920937,
      "lat": 51.5139342,
      "lon": -0.0750045,
      "tags": {
        "amenity": "toilets",
        "fee": "yes",
        "note": "An automated Sanisette superloo"
      }
    },
    {
      "type": "node",
      "id": 679121842,
      "lat": 51.4843154,
      "lon": -0.2579051,
      "tags": {
        "amenity": "toilets",
        "name": "Cafe Lavatories"
      }
    },
    {
      "type": "node",
      "id": 687881819,
      "lat": 51.3268564,
      "lon": 0.4488482,
      "tags": {
        "access": "private",
        "amenity": "toilets"
      }
    },
    {
      "type": "node",
      "id": 694510919,
      "lat": 51.5088161,
      "lon": -0.0788891,
      "tags": {
        "amenity": "toilets",
        "fee": "yes"
      }
    },
    {
      "type": "node",
      "id": 701600791,
      "lat": 51.3289784,
      "lon": 0.4430167,
      "tags": {
        "amenity": "toilets",
        "name": "WCs In Snodland Car Park"
      }
    },
    {
      "type": "node",
      "id": 703499479,
      "lat": 51.4834274,
      "lon": -0.2929168,
      "tags": {
        "amenity": "toilets",
        "name": "Orangery Restaurant",
        "wheelchair": "yes",
        "wheelchair:description": "Only 120cm turning circle"
      }
    },
    {
      "type": "node",
      "id": 703499480,
      "lat": 51.4826368,
      "lon": -0.2955861,
      "tags": {
        "amenity": "toilets",
        "wheelchair": "yes"
      }
    },
    {
      "type": "node",
      "id": 703499481,
      "lat": 51.4839062,
      "lon": -0.2940831,
      "tags": {
        "amenity": "toilets",
        "wheelchair": "yes"
      }
    },
    {
      "type": "node",
      "id": 704892236,
      "lat": 51.5126537,
      "lon": -0.1147889,
      "tags": {
        "access": "yes",
        "amenity": "toilets",
        "fee": "50p",
        "unisex": "yes",
        "wheelchair": "yes"
      }
    },
    {
      "type": "node",
      "id": 705074466,
      "lat": 51.4629238,
      "lon": -0.1127436,
      "tags": {
        "amenity": "toilets",
        "fee": "no",
        "name": "Pope's Road Toilets",
        "source": "survey"
      }
    },
    {
      "type": "node",
      "id": 706106376,
      "lat": 51.5316762,
      "lon": -0.123858,
      "tags": {
        "amenity": "toilets",
        "fee": "yes",
        "female": "no",
        "male": "yes",
        "source": "http://www.networkrail.co.uk/kingscross",
        "wheelchair": "yes"
      }
    },
    {
      "type": "node",
      "id": 727674428,
      "lat": 51.5697632,
      "lon": -0.4378046,
      "tags": {
        "amenity": "toilets",
        "fee": "no",
        "opening_hours": "6:30-00:00",
        "operator": "TfL",
        "wheelchair": "no"
      }
    },
    {
      "type": "node",
      "id": 736819740,
      "lat": 51.4819167,
      "lon": -0.156019,
      "tags": {
        "amenity": "toilets",
        "fee": "no",
        "wheelchair": "yes"
      }
    },
    {
      "type": "node",
      "id": 739681434,
      "lat": 51.5099801,
      "lon": -0.0855446,
      "tags": {
        "amenity": "toilets"
      }
    },
    {
      "type": "node",
      "id": 747813217,
      "lat": 51.514314,
      "lon": -0.0993426,
      "tags": {
        "amenity": "toilets",
        "fee": "yes",
        "wheelchair": "yes"
      }
    },
    {
      "type": "node",
      "id": 751735279,
      "lat": 51.5103781,
      "lon": -0.1177473,
      "tags": {
        "amenity": "toilets"
      }
    },
    {
      "type": "node",
      "id": 762061408,
      "lat": 51.6278125,
      "lon": 0.2864831,
      "tags": {
        "amenity": "toilets",
        "female": "yes",
        "male": "yes",
        "name": "Calcott Hall Farm Shop",
        "opening_hours": "Tu-Su 10:00-18:00"
      }
    },
    {
      "type": "node",
      "id": 768697930,
      "lat": 51.710916,
      "lon": -0.008039,
      "tags": {
        "amenity": "toilets",
        "name": "Lea Valley Country Park"
      }
    },
    {
      "type": "node",
      "id": 777965399,
      "lat": 51.705616,
      "lon": 0.245139,
      "tags": {
        "amenity": "toilets",
        "female": "yes",
        "male": "yes",
        "name": "Budworth Hall",
        "wheelchair": "yes"
      }
    },
    {
      "type": "node",
      "id": 780114296,
      "lat": 51.4519834,
      "lon": -0.254617,
      "tags": {
        "amenity": "toilets",
        "fee": "no"
      }
    },
    {
      "type": "node",
      "id": 798908359,
      "lat": 51.494134,
      "lon": -0.099223,
      "tags": {
        "amenity": "toilets",
        "fee": "yes",
        "female": "yes",
        "level": "1",
        "male": "yes",
        "name": "Elephant and Castle Shopping Centre",
        "opening_hours": "Mo-Sa 07:00-22:00; Su 09:00-22:00",
        "wheelchair": "yes"
      }
    },
    {
      "type": "node",
      "id": 804289634,
      "lat": 51.5665686,
      "lon": -0.1891727,
      "tags": {
        "amenity": "toilets"
      }
    },
    {
      "type": "node",
      "id": 804358498,
      "lat": 51.5659718,
      "lon": -0.1572349,
      "tags": {
        "amenity": "toilets"
      }
    },
    {
      "type": "node",
      "id": 812988652,
      "lat": 51.2711091,
      "lon": 0.0399749,
      "tags": {
        "amenity": "toilets"
      }
    },
    {
      "type": "node",
      "id": 815734786,
      "lat": 51.5543139,
      "lon": -0.1650324,
      "tags": {
        "amenity": "toilets",
        "opening_hours": "Jun-Oct: Mo-Su 09:00-20:00; Nov-May: Mo-Su 09:00-18:00"
      }
    },
    {
      "type": "node",
      "id": 819828632,
      "lat": 51.5015868,
      "lon": 0.0337012,
      "tags": {
        "access": "yes",
        "amenity": "toilets",
        "wheelchair": "yes"
      }
    },
    {
      "type": "node",
      "id": 827452607,
      "lat": 51.3834692,
      "lon": -0.4163749,
      "tags": {
        "amenity": "toilets",
        "capacity": "1",
        "fee": "yes"
      }
    },
    {
      "type": "node",
      "id": 831707446,
      "lat": 51.315647,
      "lon": -0.473509,
      "tags": {
        "amenity": "toilets"
      }
    },
    {
      "type": "node",
      "id": 839850730,
      "lat": 51.4049923,
      "lon": -0.3469199,
      "tags": {
        "amenity": "toilets"
      }
    },
    {
      "type": "node",
      "id": 845373758,
      "lat": 51.4890892,
      "lon": -0.1340486,
      "tags": {
        "amenity": "toilets",
        "changing_table": "no",
        "male": "yes",
        "wheelchair": "no"
      }
    },
    {
      "type": "node",
      "id": 852122499,
      "lat": 51.5223193,
      "lon": -0.1556584,
      "tags": {
        "amenity": "toilets",
        "female": "no",
        "male": "yes",
        "note": "Gentlemen Only",
        "operator": "City of Westminster"
      }
    },
    {
      "type": "node",
      "id": 866383916,
      "lat": 51.5098044,
      "lon": -0.1311357,
      "tags": {
        "amenity": "toilets"
      }
    },
    {
      "type": "node",
      "id": 871153883,
      "lat": 51.6565065,
      "lon": -0.1496653,
      "tags": {
        "amenity": "toilets"
      }
    },
    {
      "type": "node",
      "id": 885335037,
      "lat": 51.6518911,
      "lon": -0.0841681,
      "tags": {
        "amenity": "toilets",
        "layer": "-1",
        "toilets:wheelchair": "yes",
        "wheelchair": "yes"
      }
    },
    {
      "type": "node",
      "id": 885392904,
      "lat": 51.491618,
      "lon": -0.4152736,
      "tags": {
        "amenity": "toilets",
        "fee": "no",
        "wheelchair": "yes"
      }
    },
    {
      "type": "node",
      "id": 888429921,
      "lat": 51.5695845,
      "lon": 0.1295369,
      "tags": {
        "amenity": "toilets"
      }
    },
    {
      "type": "node",
      "id": 890044180,
      "lat": 51.6862959,
      "lon": -0.0017354,
      "tags": {
        "amenity": "toilets"
      }
    },
    {
      "type": "node",
      "id": 908396274,
      "lat": 51.5332918,
      "lon": -0.2187364,
      "tags": {
        "amenity": "toilets"
      }
    },
    {
      "type": "node",
      "id": 918721618,
      "lat": 51.504837,
      "lon": -0.086416,
      "tags": {
        "amenity": "toilets"
      }
    },
    {
      "type": "node",
      "id": 919741103,
      "lat": 51.5014656,
      "lon": -0.2032943,
      "tags": {
        "amenity": "toilets",
        "wheelchair": "yes"
      }
    },
    {
      "type": "node",
      "id": 929322934,
      "lat": 51.4523967,
      "lon": -0.3590027,
      "tags": {
        "amenity": "toilets",
        "name": "Whitton Library toilets",
        "note": "These toilets sometimes have racist graffiti inside.",
        "operator": "Community Toilet Scheme",
        "toilets:disposal": "flush"
      }
    },
    {
      "type": "node",
      "id": 935555307,
      "lat": 51.5596208,
      "lon": -0.2508192,
      "tags": {
        "amenity": "toilets",
        "fee": "yes",
        "note": "Fee: 10p"
      }
    },
    {
      "type": "node",
      "id": 946889304,
      "lat": 51.6252142,
      "lon": 0.0463921,
      "tags": {
        "amenity": "toilets"
      }
    },
    {
      "type": "node",
      "id": 973489348,
      "lat": 51.7270176,
      "lon": -0.369098,
      "tags": {
        "amenity": "toilets"
      }
    },
    {
      "type": "node",
      "id": 1088333795,
      "lat": 51.50449,
      "lon": -0.078593,
      "tags": {
        "amenity": "toilets",
        "fee": "yes",
        "female": "yes",
        "male": "yes",
        "opening_hours": "24/7",
        "operator": "More London",
        "wheelchair": "yes"
      }
    },
    {
      "type": "node",
      "id": 1090774423,
      "lat": 51.4861517,
      "lon": -0.1236927,
      "tags": {
        "amenity": "toilets",
        "changing_table": "no",
        "fee": "yes",
        "name": "Vauxhall bus station",
        "opening_hours": "Mo-Sa 06:00-20:00; Su 10:00-17:30",
        "wheelchair": "yes"
      }
    },
    {
      "type": "node",
      "id": 1098162013,
      "lat": 51.5015335,
      "lon": -0.3066155,
      "tags": {
        "amenity": "toilets"
      }
    },
    {
      "type": "node",
      "id": 1102236526,
      "lat": 51.5048572,
      "lon": -0.0826425,
      "tags": {
        "amenity": "toilets",
        "fee": "no",
        "female": "yes",
        "male": "yes",
        "operator": "More London",
        "wheelchair": "yes"
      }
    },
    {
      "type": "node",
      "id": 1115390365,
      "lat": 51.5072871,
      "lon": -0.1434289,
      "tags": {
        "amenity": "toilets"
      }
    },
    {
      "type": "node",
      "id": 1117274887,
      "lat": 51.5148266,
      "lon": -0.3014622,
      "tags": {
        "amenity": "toilets",
        "source": "visit"
      }
    },
    {
      "type": "node",
      "id": 1133624650,
      "lat": 51.5334251,
      "lon": -0.2044299,
      "tags": {
        "amenity": "toilets"
      }
    },
    {
      "type": "node",
      "id": 1146126853,
      "lat": 51.2773253,
      "lon": -0.3731597,
      "tags": {
        "amenity": "toilets"
      }
    },
    {
      "type": "node",
      "id": 1174213694,
      "lat": 51.4728297,
      "lon": -0.1056616,
      "tags": {
        "amenity": "toilets"
      }
    },
    {
      "type": "node",
      "id": 1186119761,
      "lat": 51.4374437,
      "lon": -0.1161799,
      "tags": {
        "amenity": "toilets",
        "fee": "no",
        "wheelchair": "yes"
      }
    },
    {
      "type": "node",
      "id": 1193596022,
      "lat": 51.2594567,
      "lon": -0.3741599,
      "tags": {
        "amenity": "toilets",
        "fee": "no",
        "operator": "National Trust",
        "toilets:wheelchair": "yes",
        "wheelchair": "yes",
        "wheelchair:description": "Separate accessible WC and baby changing rooms."
      }
    },
    {
      "type": "node",
      "id": 1207087355,
      "lat": 51.4939085,
      "lon": -0.1743903,
      "tags": {
        "amenity": "toilets",
        "fee": "yes",
        "wheelchair": "no"
      }
    },
    {
      "type": "node",
      "id": 1217732783,
      "lat": 51.248409,
      "lon": -0.0680015,
      "tags": {
        "amenity": "toilets",
        "note": "Toilets are built into the bus shelter."
      }
    },
    {
      "type": "node",
      "id": 1226107944,
      "lat": 51.5791364,
      "lon": -0.3370847,
      "tags": {
        "amenity": "toilets",
        "fee": "no",
        "female": "yes",
        "male": "no",
        "name": "Harrow-on-the-Hill Tube Station",
        "operator": "Transport for London",
        "wheelchair": "no"
      }
    },
    {
      "type": "node",
      "id": 1226108166,
      "lat": 51.5791737,
      "lon": -0.3372261,
      "tags": {
        "amenity": "toilets",
        "fee": "no",
        "female": "no",
        "male": "yes",
        "name": "Harrow-on-the-Hill Tube Station",
        "operator": "Transport for London",
        "wheelchair": "no"
      }
    },
    {
      "type": "node",
      "id": 1255801499,
      "lat": 51.5702388,
      "lon": -0.1251331,
      "tags": {
        "amenity": "toilets",
        "verified": "yes"
      }
    },
    {
      "type": "node",
      "id": 1258433202,
      "lat": 51.3162896,
      "lon": 0.4331929,
      "tags": {
        "amenity": "toilets"
      }
    },
    {
      "type": "node",
      "id": 1273579368,
      "lat": 51.288673,
      "lon": 0.1770552,
      "tags": {
        "amenity": "toilets"
      }
    },
    {
      "type": "node",
      "id": 1279780460,
      "lat": 51.4571036,
      "lon": 0.1461723,
      "tags": {
        "amenity": "toilets"
      }
    },
    {
      "type": "node",
      "id": 1295894918,
      "lat": 51.418255,
      "lon": -0.1716613,
      "tags": {
        "amenity": "toilets"
      }
    },
    {
      "type": "node",
      "id": 1296405857,
      "lat": 51.6329096,
      "lon": 0.0096065,
      "tags": {
        "access": "customers",
        "amenity": "toilets",
        "description": "Platform 2",
        "source": "visit"
      }
    },
    {
      "type": "node",
      "id": 1296600076,
      "lat": 51.6260746,
      "lon": 0.046936,
      "tags": {
        "amenity": "toilets"
      }
    },
    {
      "type": "node",
      "id": 1296610762,
      "lat": 51.511973,
      "lon": -0.2244689,
      "tags": {
        "amenity": "toilets",
        "designation": "Free within station",
        "source": "visit"
      }
    },
    {
      "type": "node",
      "id": 1304102792,
      "lat": 51.5672558,
      "lon": -0.1993132,
      "tags": {
        "amenity": "toilets"
      }
    },
    {
      "type": "node",
      "id": 1306552273,
      "lat": 51.5046549,
      "lon": -0.1699682,
      "tags": {
        "amenity": "toilets",
        "fee": "no",
        "wheelchair": "yes"
      }
    },
    {
      "type": "node",
      "id": 1313266175,
      "lat": 51.5403919,
      "lon": -0.3758228,
      "tags": {
        "amenity": "toilets"
      }
    },
    {
      "type": "node",
      "id": 1313267412,
      "lat": 51.4672491,
      "lon": -0.4229254,
      "tags": {
        "amenity": "toilets",
        "designation": "Pay toilet"
      }
    },
    {
      "type": "node",
      "id": 1313535473,
      "lat": 51.5567871,
      "lon": -0.2814885,
      "tags": {
        "amenity": "toilets"
      }
    },
    {
      "type": "node",
      "id": 1320893735,
      "lat": 51.5108756,
      "lon": -0.1006053,
      "tags": {
        "amenity": "toilets",
        "fee": "yes",
        "mapillary": "SA7PIR8JxfWJBUPT9pBeNQ",
        "name": "Paul's Walk",
        "survey:date": "2017-06-08",
        "unisex": "yes"
      }
    },
    {
      "type": "node",
      "id": 1320895538,
      "lat": 51.5108717,
      "lon": -0.1051439,
      "tags": {
        "access": "no",
        "amenity": "toilets",
        "female": "yes",
        "male": "yes",
        "name": "Blackfriars Millennium Pier"
      }
    },
    {
      "type": "node",
      "id": 1321888834,
      "lat": 51.5419018,
      "lon": -0.0005097,
      "tags": {
        "amenity": "toilets",
        "fee": "yes",
        "opening_hours": "Mo-Sa 09:00-18:00; Su,PH 09:00-18:00"
      }
    },
    {
      "type": "node",
      "id": 1326965059,
      "lat": 51.2580709,
      "lon": -0.0053321,
      "tags": {
        "amenity": "toilets",
        "fee": "no",
        "wheelchair": "RADAR key"
      }
    },
    {
      "type": "node",
      "id": 1333739507,
      "lat": 51.4785757,
      "lon": -0.2905818,
      "tags": {
        "amenity": "toilets",
        "fee": "no",
        "wheelchair": "yes"
      }
    },
    {
      "type": "node",
      "id": 1345117450,
      "lat": 51.6723342,
      "lon": 0.255527,
      "tags": {
        "amenity": "toilets",
        "source": "visit... very 50s"
      }
    },
    {
      "type": "node",
      "id": 1349021287,
      "lat": 51.6582724,
      "lon": -0.4144604,
      "tags": {
        "amenity": "toilets"
      }
    },
    {
      "type": "node",
      "id": 1361990617,
      "lat": 51.4319492,
      "lon": -0.2128965,
      "tags": {
        "amenity": "toilets"
      }
    },
    {
      "type": "node",
      "id": 1364665481,
      "lat": 51.4579086,
      "lon": 0.1165331,
      "tags": {
        "amenity": "toilets",
        "designation": "amenity=toilets"
      }
    },
    {
      "type": "node",
      "id": 1372372846,
      "lat": 51.606186,
      "lon": -0.1860383,
      "tags": {
        "amenity": "toilets"
      }
    },
    {
      "type": "node",
      "id": 1376858185,
      "lat": 51.655727,
      "lon": -0.204005,
      "tags": {
        "amenity": "toilets",
        "female": "yes",
        "male": "yes",
        "name": "The Spires",
        "opening_hours": "Mo-Th 08:30-20:00; Fr 08:30-21:00; Sa 08:30-19:00; Su 10:00-16:00",
        "wheelchair": "yes"
      }
    },
    {
      "type": "node",
      "id": 1388988156,
      "lat": 51.5302141,
      "lon": -0.4813357,
      "tags": {
        "amenity": "toilets"
      }
    },
    {
      "type": "node",
      "id": 1390249803,
      "lat": 51.4616678,
      "lon": -0.2159205,
      "tags": {
        "access": "yes",
        "amenity": "toilets",
        "female": "yes",
        "male": "yes",
        "name": "Putney Library",
        "opening_hours": "Mo,We,Th 09:00-20:00; Fr 09:00-14:00; Sa 09:00-17:00; Su 13:00-17:00",
        "toilets:scheme": "Community Toilet Scheme",
        "wheelchair": "yes"
      }
    },
    {
      "type": "node",
      "id": 1390254084,
      "lat": 51.4833069,
      "lon": -0.2190457,
      "tags": {
        "amenity": "toilets",
        "fee": "yes",
        "female": "yes",
        "male": "yes",
        "wheelchair": "yes"
      }
    },
    {
      "type": "node",
      "id": 1408474635,
      "lat": 51.5292728,
      "lon": -0.0468875,
      "tags": {
        "amenity": "toilets",
        "fee": "yes",
        "female": "yes",
        "male": "yes",
        "wheelchair": "no"
      }
    },
    {
      "type": "node",
      "id": 1412226827,
      "lat": 51.4744846,
      "lon": -0.1026166,
      "tags": {
        "amenity": "toilets"
      }
    },
    {
      "type": "node",
      "id": 1421212310,
      "lat": 51.4812706,
      "lon": -0.1893213,
      "tags": {
        "amenity": "toilets"
      }
    },
    {
      "type": "node",
      "id": 1421816194,
      "lat": 51.50964,
      "lon": -0.3082651,
      "tags": {
        "access": "yes",
        "amenity": "toilets"
      }
    },
    {
      "type": "node",
      "id": 1422401250,
      "lat": 51.549152,
      "lon": -0.1528146,
      "tags": {
        "amenity": "toilets",
        "fee": "yes",
        "female": "yes",
        "male": "yes",
        "name": "Queen's Crescent",
        "wheelchair": "yes"
      }
    },
    {
      "type": "node",
      "id": 1425191724,
      "lat": 51.4313338,
      "lon": -0.2762163,
      "tags": {
        "amenity": "toilets"
      }
    },
    {
      "type": "node",
      "id": 1428315650,
      "lat": 51.492889,
      "lon": -0.1498411,
      "tags": {
        "amenity": "toilets",
        "fee": "yes"
      }
    },
    {
      "type": "node",
      "id": 1428315721,
      "lat": 51.4932769,
      "lon": -0.1492424,
      "tags": {
        "amenity": "toilets",
        "changing_table": "yes",
        "fee": "yes"
      }
    },
    {
      "type": "node",
      "id": 1428315779,
      "lat": 51.4953797,
      "lon": -0.1450742,
      "tags": {
        "amenity": "toilets",
        "fee": "30p",
        "toilets:wheelchair": "yes",
        "wheelchair": "yes"
      }
    },
    {
      "type": "node",
      "id": 1429005342,
      "lat": 51.3117287,
      "lon": -0.4743278,
      "tags": {
        "amenity": "toilets"
      }
    },
    {
      "type": "node",
      "id": 1436775907,
      "lat": 51.5159366,
      "lon": -0.2048126,
      "tags": {
        "access": "yes",
        "amenity": "toilets"
      }
    },
    {
      "type": "node",
      "id": 1449001356,
      "lat": 51.5431245,
      "lon": -0.0066793,
      "tags": {
        "amenity": "toilets",
        "level": "0",
        "wheelchair": "yes"
      }
    },
    {
      "type": "node",
      "id": 1449156765,
      "lat": 51.5432738,
      "lon": -0.0050475,
      "tags": {
        "amenity": "toilets",
        "layer": "0",
        "level": "0",
        "wheelchair": "yes"
      }
    },
    {
      "type": "node",
      "id": 1453583158,
      "lat": 51.5432853,
      "lon": -0.0050722,
      "tags": {
        "amenity": "toilets",
        "layer": "-1",
        "level": "-1"
      }
    },
    {
      "type": "node",
      "id": 1461884001,
      "lat": 51.6429722,
      "lon": -0.1619115,
      "tags": {
        "amenity": "toilets",
        "fee": "yes",
        "female": "yes",
        "male": "yes",
        "name": "East Barnet War Memorial",
        "wheelchair": "yes"
      }
    },
    {
      "type": "node",
      "id": 1483282639,
      "lat": 51.5000231,
      "lon": 0.0039612,
      "tags": {
        "amenity": "toilets"
      }
    },
    {
      "type": "node",
      "id": 1484898071,
      "lat": 51.447785,
      "lon": -0.3234941,
      "tags": {
        "amenity": "toilets",
        "fee": "no",
        "note": "Male only",
        "wheelchair": "no"
      }
    },
    {
      "type": "node",
      "id": 1491602080,
      "lat": 51.488472,
      "lon": -0.3966654,
      "tags": {
        "amenity": "toilets"
      }
    },
    {
      "type": "node",
      "id": 1491620412,
      "lat": 51.4885345,
      "lon": -0.3875795,
      "tags": {
        "amenity": "toilets"
      }
    },
    {
      "type": "node",
      "id": 1493328982,
      "lat": 51.5141092,
      "lon": -0.1395125,
      "tags": {
        "amenity": "toilets",
        "level": "-1",
        "wheelchair": "no"
      }
    },
    {
      "type": "node",
      "id": 1499089924,
      "lat": 51.5796983,
      "lon": -0.1500857,
      "tags": {
        "amenity": "toilets"
      }
    },
    {
      "type": "node",
      "id": 1508420512,
      "lat": 51.4717996,
      "lon": -0.4882616,
      "tags": {
        "addr:street": "Wallis Road",
        "amenity": "toilets",
        "changing_table": "yes",
        "fee": "no",
        "female": "yes",
        "level": "3",
        "male": "yes",
        "wheelchair": "yes"
      }
    },
    {
      "type": "node",
      "id": 1510803670,
      "lat": 51.3706427,
      "lon": -0.1949893,
      "tags": {
        "amenity": "toilets"
      }
    },
    {
      "type": "node",
      "id": 1513376403,
      "lat": 51.6306406,
      "lon": 0.3296551,
      "tags": {
        "amenity": "toilets",
        "female": "no",
        "male": "yes"
      }
    },
    {
      "type": "node",
      "id": 1513624743,
      "lat": 51.6306722,
      "lon": 0.329686,
      "tags": {
        "amenity": "toilets",
        "female": "yes",
        "male": "no"
      }
    },
    {
      "type": "node",
      "id": 1518226320,
      "lat": 51.3148624,
      "lon": -0.4785542,
      "tags": {
        "amenity": "toilets"
      }
    },
    {
      "type": "node",
      "id": 1531851606,
      "lat": 51.66697,
      "lon": 0.3840833,
      "tags": {
        "amenity": "toilets"
      }
    },
    {
      "type": "node",
      "id": 1531851652,
      "lat": 51.6669924,
      "lon": 0.3841208,
      "tags": {
        "amenity": "toilets"
      }
    },
    {
      "type": "node",
      "id": 1537875820,
      "lat": 51.6595035,
      "lon": -0.4023811,
      "tags": {
        "amenity": "toilets"
      }
    },
    {
      "type": "node",
      "id": 1539891332,
      "lat": 51.402414,
      "lon": -0.1884687,
      "tags": {
        "amenity": "toilets"
      }
    },
    {
      "type": "node",
      "id": 1544624013,
      "lat": 51.2999719,
      "lon": 0.440375,
      "tags": {
        "access": "yes",
        "amenity": "toilets",
        "female": "yes",
        "male": "yes"
      }
    },
    {
      "type": "node",
      "id": 1546034593,
      "lat": 51.479337,
      "lon": 0.154007,
      "tags": {
        "amenity": "toilets",
        "female": "yes",
        "male": "yes"
      }
    },
    {
      "type": "node",
      "id": 1559876021,
      "lat": 51.3666588,
      "lon": 0.3046416,
      "tags": {
        "amenity": "toilets"
      }
    },
    {
      "type": "node",
      "id": 1579064293,
      "lat": 51.5418329,
      "lon": 0.001224,
      "tags": {
        "amenity": "toilets"
      }
    },
    {
      "type": "node",
      "id": 1591382301,
      "lat": 51.5225976,
      "lon": -0.1259842,
      "tags": {
        "amenity": "toilets",
        "female": "yes",
        "male": "yes"
      }
    },
    {
      "type": "node",
      "id": 1597710055,
      "lat": 51.4154727,
      "lon": -0.3382115,
      "tags": {
        "amenity": "toilets",
        "female": "yes",
        "male": "yes",
        "wheelchair": "yes"
      }
    },
    {
      "type": "node",
      "id": 1614366736,
      "lat": 51.4319873,
      "lon": -0.5460735,
      "tags": {
        "amenity": "toilets",
        "wheelchair": "yes"
      }
    },
    {
      "type": "node",
      "id": 1646417228,
      "lat": 51.5402321,
      "lon": -0.4392476,
      "tags": {
        "amenity": "toilets"
      }
    },
    {
      "type": "node",
      "id": 1649317042,
      "lat": 51.4288196,
      "lon": -0.0471327,
      "tags": {
        "amenity": "toilets"
      }
    },
    {
      "type": "node",
      "id": 1652331349,
      "lat": 51.3619112,
      "lon": -0.4573488,
      "tags": {
        "amenity": "toilets"
      }
    },
    {
      "type": "node",
      "id": 1656334886,
      "lat": 51.4739191,
      "lon": -0.0352604,
      "tags": {
        "amenity": "toilets"
      }
    },
    {
      "type": "node",
      "id": 1658544859,
      "lat": 51.4725371,
      "lon": -0.0373086,
      "tags": {
        "amenity": "toilets"
      }
    },
    {
      "type": "node",
      "id": 1667373942,
      "lat": 51.4724021,
      "lon": -0.0369479,
      "tags": {
        "amenity": "toilets",
        "source": "Personal knowledge"
      }
    },
    {
      "type": "node",
      "id": 1670423000,
      "lat": 51.4740702,
      "lon": -0.0359078,
      "tags": {
        "amenity": "toilets"
      }
    },
    {
      "type": "node",
      "id": 1671272868,
      "lat": 51.5518122,
      "lon": -0.1922934,
      "tags": {
        "amenity": "toilets",
        "wheelchair": "yes"
      }
    },
    {
      "type": "node",
      "id": 1676805184,
      "lat": 51.4751972,
      "lon": -0.0361917,
      "tags": {
        "amenity": "toilets"
      }
    },
    {
      "type": "node",
      "id": 1684609581,
      "lat": 51.4746457,
      "lon": -0.0376848,
      "tags": {
        "amenity": "toilets",
        "designation": "Ground floor",
        "source": "Personal knowledge"
      }
    },
    {
      "type": "node",
      "id": 1684643221,
      "lat": 51.4750732,
      "lon": -0.0358235,
      "tags": {
        "amenity": "toilets"
      }
    },
    {
      "type": "node",
      "id": 1684652387,
      "lat": 51.4769573,
      "lon": -0.0419425,
      "tags": {
        "amenity": "toilets"
      }
    },
    {
      "type": "node",
      "id": 1684656254,
      "lat": 51.4764782,
      "lon": -0.0323798,
      "tags": {
        "amenity": "toilets",
        "name": "New Cross Rail Station"
      }
    },
    {
      "type": "node",
      "id": 1685008635,
      "lat": 51.6469715,
      "lon": 0.0820659,
      "tags": {
        "amenity": "toilets",
        "fee": "yes"
      }
    },
    {
      "type": "node",
      "id": 1685968030,
      "lat": 51.4741436,
      "lon": -0.0366136,
      "tags": {
        "amenity": "toilets"
      }
    },
    {
      "type": "node",
      "id": 1686284781,
      "lat": 51.4764159,
      "lon": -0.0376996,
      "tags": {
        "amenity": "toilets"
      }
    },
    {
      "type": "node",
      "id": 1686333587,
      "lat": 51.4748456,
      "lon": -0.0357126,
      "tags": {
        "amenity": "toilets"
      }
    },
    {
      "type": "node",
      "id": 1686505988,
      "lat": 51.474385,
      "lon": -0.0380811,
      "tags": {
        "amenity": "toilets"
      }
    },
    {
      "type": "node",
      "id": 1686505990,
      "lat": 51.4741529,
      "lon": -0.0379738,
      "tags": {
        "amenity": "toilets"
      }
    },
    {
      "type": "node",
      "id": 1687451490,
      "lat": 51.65155,
      "lon": -0.149596,
      "tags": {
        "amenity": "toilets",
        "fee": "yes",
        "female": "yes",
        "name": "Cockfosters Underground Station",
        "opening_hours": "Mo-Sa 06:00-24:00; Su 07:00-23:00"
      }
    },
    {
      "type": "node",
      "id": 1687451492,
      "lat": 51.6518094,
      "lon": -0.1497064,
      "tags": {
        "amenity": "toilets",
        "fee": "yes",
        "male": "yes",
        "name": "Cockfosters Underground Station",
        "opening_hours": "Mo-Sa 06:00-24:00; Su 07:00-23:00"
      }
    },
    {
      "type": "node",
      "id": 1688641517,
      "lat": 51.2533429,
      "lon": 0.4451561,
      "tags": {
        "amenity": "toilets",
        "designation": "Toilets",
        "source": "Local knowledge"
      }
    },
    {
      "type": "node",
      "id": 1689263091,
      "lat": 51.6187973,
      "lon": -0.1343907,
      "tags": {
        "amenity": "toilets"
      }
    },
    {
      "type": "node",
      "id": 1703003678,
      "lat": 51.2931293,
      "lon": -0.489695,
      "tags": {
        "amenity": "toilets",
        "female": "yes",
        "male": "yes",
        "name": "BP Services - Ripley (North)",
        "wheelchair": "yes"
      }
    },
    {
      "type": "node",
      "id": 1705949644,
      "lat": 51.633177,
      "lon": -0.4767232,
      "tags": {
        "amenity": "toilets",
        "fee": "no",
        "wheelchair": "limited"
      }
    },
    {
      "type": "node",
      "id": 1708650816,
      "lat": 51.4942394,
      "lon": -0.0125037,
      "tags": {
        "access": "customers",
        "amenity": "toilets",
        "operator": "Asda"
      }
    },
    {
      "type": "node",
      "id": 1713383928,
      "lat": 51.5044411,
      "lon": -0.2246025,
      "tags": {
        "amenity": "toilets",
        "note": "Automated toilets",
        "wheelchair": "yes"
      }
    },
    {
      "type": "node",
      "id": 1723656498,
      "lat": 51.5092752,
      "lon": -0.0906698,
      "tags": {
        "amenity": "toilets"
      }
    },
    {
      "type": "node",
      "id": 1735303350,
      "lat": 51.5030083,
      "lon": 0.0042055,
      "tags": {
        "amenity": "toilets"
      }
    },
    {
      "type": "node",
      "id": 1752163497,
      "lat": 51.4771152,
      "lon": -0.2353267,
      "tags": {
        "amenity": "toilets"
      }
    },
    {
      "type": "node",
      "id": 1752190418,
      "lat": 51.4763154,
      "lon": -0.2300731,
      "tags": {
        "amenity": "toilets"
      }
    },
    {
      "type": "node",
      "id": 1752190426,
      "lat": 51.4764062,
      "lon": -0.2348862,
      "tags": {
        "amenity": "toilets"
      }
    },
    {
      "type": "node",
      "id": 1752190519,
      "lat": 51.4770568,
      "lon": -0.2363064,
      "tags": {
        "amenity": "toilets"
      }
    },
    {
      "type": "node",
      "id": 1752208308,
      "lat": 51.5683676,
      "lon": -0.1426838,
      "tags": {
        "amenity": "toilets"
      }
    },
    {
      "type": "node",
      "id": 1756373274,
      "lat": 51.4848446,
      "lon": -0.1627571,
      "tags": {
        "amenity": "toilets"
      }
    },
    {
      "type": "node",
      "id": 1756387172,
      "lat": 51.2587724,
      "lon": 0.2705738,
      "tags": {
        "amenity": "toilets"
      }
    },
    {
      "type": "node",
      "id": 1757495215,
      "lat": 51.4922658,
      "lon": 0.2721278,
      "tags": {
        "amenity": "toilets"
      }
    },
    {
      "type": "node",
      "id": 1766486420,
      "lat": 51.2591109,
      "lon": -0.3742269,
      "tags": {
        "amenity": "toilets",
        "toilets:wheelchair": "yes",
        "wheelchair": "yes",
        "wheelchair:description": "Accessible WC with baby changing."
      }
    },
    {
      "type": "node",
      "id": 1778378552,
      "lat": 51.6172244,
      "lon": -0.1172182,
      "tags": {
        "amenity": "toilets"
      }
    },
    {
      "type": "node",
      "id": 1814712193,
      "lat": 51.7158708,
      "lon": -0.2867262,
      "tags": {
        "access": "customers",
        "amenity": "toilets",
        "level": "0",
        "toilets:disposal": "flush",
        "unisex": "yes"
      }
    },
    {
      "type": "node",
      "id": 1814712200,
      "lat": 51.7160403,
      "lon": -0.2866109,
      "tags": {
        "access": "customers",
        "amenity": "toilets",
        "layer": "1",
        "level": "1",
        "toilets:disposal": "flush",
        "unisex": "yes"
      }
    },
    {
      "type": "node",
      "id": 1853127924,
      "lat": 51.5727448,
      "lon": 0.0668362,
      "tags": {
        "amenity": "toilets",
        "fee": "no",
        "source": "survey",
        "unisex": "yes",
        "wheelchair": "yes"
      }
    },
    {
      "type": "node",
      "id": 1913010941,
      "lat": 51.3912377,
      "lon": 0.4009341,
      "tags": {
        "amenity": "toilets"
      }
    },
    {
      "type": "node",
      "id": 1921870859,
      "lat": 51.6536501,
      "lon": 0.2779277,
      "tags": {
        "amenity": "toilets"
      }
    },
    {
      "type": "node",
      "id": 1933715155,
      "lat": 51.4650291,
      "lon": -0.1608241,
      "tags": {
        "amenity": "toilets",
        "fee": "no"
      }
    },
    {
      "type": "node",
      "id": 1933715200,
      "lat": 51.4638215,
      "lon": -0.1639582,
      "tags": {
        "amenity": "toilets",
        "fee": "no"
      }
    },
    {
      "type": "node",
      "id": 1938418514,
      "lat": 51.3346662,
      "lon": 0.1773499,
      "tags": {
        "amenity": "toilets"
      }
    },
    {
      "type": "node",
      "id": 1939280040,
      "lat": 51.4584735,
      "lon": -0.169817,
      "tags": {
        "amenity": "toilets"
      }
    },
    {
      "type": "node",
      "id": 1961583238,
      "lat": 51.5466504,
      "lon": 0.0258264,
      "tags": {
        "amenity": "toilets"
      }
    },
    {
      "type": "node",
      "id": 1963290546,
      "lat": 51.5935619,
      "lon": -0.0212103,
      "tags": {
        "access": "permissive",
        "amenity": "toilets",
        "female": "yes",
        "male": "yes",
        "source": "leaflet",
        "wheelchair": "yes"
      }
    },
    {
      "type": "node",
      "id": 1964458523,
      "lat": 51.5941771,
      "lon": 0.0237145,
      "tags": {
        "access": "key",
        "amenity": "toilets",
        "disabled": "yes",
        "source": "survey"
      }
    },
    {
      "type": "node",
      "id": 1968744125,
      "lat": 51.5013275,
      "lon": -0.1238053,
      "tags": {
        "amenity": "toilets",
        "source": "survey"
      }
    },
    {
      "type": "node",
      "id": 1973254569,
      "lat": 51.5080708,
      "lon": 0.0629126,
      "tags": {
        "amenity": "toilets"
      }
    },
    {
      "type": "node",
      "id": 1973254582,
      "lat": 51.5073829,
      "lon": 0.0646292,
      "tags": {
        "amenity": "toilets"
      }
    },
    {
      "type": "node",
      "id": 1973254583,
      "lat": 51.5073829,
      "lon": 0.0632506,
      "tags": {
        "amenity": "toilets"
      }
    },
    {
      "type": "node",
      "id": 1973254590,
      "lat": 51.507403,
      "lon": 0.0622152,
      "tags": {
        "amenity": "toilets"
      }
    },
    {
      "type": "node",
      "id": 1981182928,
      "lat": 51.3043021,
      "lon": -0.4053598,
      "tags": {
        "amenity": "toilets",
        "toilets:wheelchair": "yes",
        "wheelchair": "yes"
      }
    },
    {
      "type": "node",
      "id": 1984550247,
      "lat": 51.5014494,
      "lon": -0.2033628,
      "tags": {
        "amenity": "toilets",
        "source": "Bing"
      }
    },
    {
      "type": "node",
      "id": 1988404054,
      "lat": 51.35407,
      "lon": -0.1041923,
      "tags": {
        "amenity": "toilets"
      }
    },
    {
      "type": "node",
      "id": 1996286401,
      "lat": 51.3928228,
      "lon": -0.2384403,
      "tags": {
        "amenity": "toilets"
      }
    },
    {
      "type": "node",
      "id": 2012346752,
      "lat": 51.6339881,
      "lon": 0.4416059,
      "tags": {
        "amenity": "toilets"
      }
    },
    {
      "type": "node",
      "id": 2038645136,
      "lat": 51.3100523,
      "lon": -0.2998226,
      "tags": {
        "amenity": "toilets",
        "female": "yes",
        "male": "yes",
        "name": "Ashtead car park",
        "wheelchair": "yes"
      }
    },
    {
      "type": "node",
      "id": 2048918706,
      "lat": 51.571388,
      "lon": 0.0138755,
      "tags": {
        "amenity": "toilets"
      }
    },
    {
      "type": "node",
      "id": 2076015627,
      "lat": 51.5948106,
      "lon": -0.5028084,
      "tags": {
        "access": "private",
        "amenity": "toilets"
      }
    },
    {
      "type": "node",
      "id": 2141849209,
      "lat": 51.5388681,
      "lon": -0.1424803,
      "tags": {
        "amenity": "toilets",
        "fee": "no",
        "female": "no",
        "male": "yes",
        "wheelchair": "no"
      }
    },
    {
      "type": "node",
      "id": 2141849210,
      "lat": 51.5388945,
      "lon": -0.1428576,
      "tags": {
        "amenity": "toilets",
        "fee": "no",
        "female": "yes",
        "male": "no",
        "wheelchair": "no"
      }
    },
    {
      "type": "node",
      "id": 2148322519,
      "lat": 51.499353,
      "lon": -0.3142956,
      "tags": {
        "amenity": "toilets"
      }
    },
    {
      "type": "node",
      "id": 2156754403,
      "lat": 51.4926491,
      "lon": -0.2605408,
      "tags": {
        "amenity": "toilets",
        "note": "Automated Sanisette/Superloo toilet",
        "source": "photograph"
      }
    },
    {
      "type": "node",
      "id": 2168881921,
      "lat": 51.7045685,
      "lon": -0.4046458,
      "tags": {
        "amenity": "toilets"
      }
    },
    {
      "type": "node",
      "id": 2168881932,
      "lat": 51.7060081,
      "lon": -0.4169728,
      "tags": {
        "access": "yes",
        "amenity": "toilets"
      }
    },
    {
      "type": "node",
      "id": 2178454024,
      "lat": 51.624776,
      "lon": -0.057604,
      "tags": {
        "amenity": "toilets",
        "fee": "yes",
        "female": "yes",
        "male": "yes",
        "name": "Market Square, Edmonton Green",
        "wheelchair": "yes"
      }
    },
    {
      "type": "node",
      "id": 2180092343,
      "lat": 51.4176012,
      "lon": -0.0725725,
      "tags": {
        "amenity": "toilets",
        "fee": "no",
        "female": "yes",
        "male": "yes",
        "name": "Crystal Palace Station platform 1 toilets",
        "supervised": "no",
        "wheelchair": "yes"
      }
    },
    {
      "type": "node",
      "id": 2180092344,
      "lat": 51.418,
      "lon": -0.07277,
      "tags": {
        "amenity": "toilets",
        "description": "These toilets are marked as for \u201cdisabled and baby changing use only\u201d. A RADAR key is required. Other toilets are available on Platform 1.",
        "fee": "no",
        "name": "Crystal Palace station ticket hall toilets",
        "unisex": "yes",
        "wheelchair": "yes"
      }
    },
    {
      "type": "node",
      "id": 2183408856,
      "lat": 51.4395211,
      "lon": 0.2696598,
      "tags": {
        "amenity": "toilets",
        "level": "0",
        "toilets:disposal": "flush"
      }
    },
    {
      "type": "node",
      "id": 2184647917,
      "lat": 51.508856,
      "lon": -0.19837,
      "tags": {
        "amenity": "toilets",
        "fee": "yes",
        "female": "yes",
        "male": "yes",
        "name": "Notting Hill Gate",
        "wheelchair": "yes"
      }
    },
    {
      "type": "node",
      "id": 2184649501,
      "lat": 51.5966166,
      "lon": -0.1303136,
      "tags": {
        "amenity": "toilets",
        "name": "Alexandra Palace Toilets"
      }
    },
    {
      "type": "node",
      "id": 2185496246,
      "lat": 51.2635575,
      "lon": -0.0672157,
      "tags": {
        "amenity": "toilets",
        "female": "yes",
        "male": "yes",
        "supervised": "no",
        "wheelchair": "yes"
      }
    },
    {
      "type": "node",
      "id": 2187487513,
      "lat": 51.4058373,
      "lon": -0.4087609,
      "tags": {
        "amenity": "toilets"
      }
    },
    {
      "type": "node",
      "id": 2191770368,
      "lat": 51.309033,
      "lon": -0.056075,
      "tags": {
        "amenity": "toilets",
        "female": "yes",
        "male": "yes",
        "wheelchair": "yes"
      }
    },
    {
      "type": "node",
      "id": 2199490002,
      "lat": 51.438123,
      "lon": 0.2697175,
      "tags": {
        "amenity": "toilets",
        "level": "1",
        "toilets:disposal": "flush"
      }
    },
    {
      "type": "node",
      "id": 2199490005,
      "lat": 51.4382322,
      "lon": 0.2693704,
      "tags": {
        "amenity": "toilets",
        "level": "1",
        "toilets:disposal": "flush"
      }
    },
    {
      "type": "node",
      "id": 2201329914,
      "lat": 51.6360265,
      "lon": -0.059171,
      "tags": {
        "amenity": "toilets"
      }
    },
    {
      "type": "node",
      "id": 2218253556,
      "lat": 51.4397083,
      "lon": 0.2722656,
      "tags": {
        "amenity": "toilets",
        "level": "1",
        "toilets:disposal": "flush"
      }
    },
    {
      "type": "node",
      "id": 2218253569,
      "lat": 51.4396102,
      "lon": 0.2723969,
      "tags": {
        "amenity": "toilets",
        "level": "1",
        "toilets:disposal": "flush"
      }
    },
    {
      "type": "node",
      "id": 2239832207,
      "lat": 51.4930573,
      "lon": -0.2283029,
      "tags": {
        "amenity": "toilets",
        "diaper": "yes",
        "fee": "no"
      }
    },
    {
      "type": "node",
      "id": 2267424469,
      "lat": 51.5804992,
      "lon": -0.0901785,
      "tags": {
        "amenity": "toilets",
        "source": "survey"
      }
    },
    {
      "type": "node",
      "id": 2281481424,
      "lat": 51.3693889,
      "lon": -0.1193787,
      "tags": {
        "amenity": "toilets",
        "source": "survey"
      }
    },
    {
      "type": "node",
      "id": 2283458255,
      "lat": 51.2865158,
      "lon": 0.3388537,
      "tags": {
        "access": "customers",
        "amenity": "toilets"
      }
    },
    {
      "type": "node",
      "id": 2287177417,
      "lat": 51.5807864,
      "lon": 0.0213449,
      "tags": {
        "access": "customers",
        "amenity": "toilets",
        "source": "survey"
      }
    },
    {
      "type": "node",
      "id": 2293528947,
      "lat": 51.5989892,
      "lon": 0.0503164,
      "tags": {
        "access": "yes",
        "amenity": "toilets",
        "source": "survey"
      }
    },
    {
      "type": "node",
      "id": 2294548481,
      "lat": 51.4372017,
      "lon": -0.1613884,
      "tags": {
        "amenity": "toilets",
        "female": "yes",
        "male": "yes",
        "name": "BP Petrol Station",
        "opening_hours": "24/7",
        "wheelchair": "yes"
      }
    },
    {
      "type": "node",
      "id": 2296490463,
      "lat": 51.3562161,
      "lon": -0.3816247,
      "tags": {
        "amenity": "toilets",
        "wheelchair": "yes"
      }
    },
    {
      "type": "node",
      "id": 2299920904,
      "lat": 51.568576,
      "lon": 0.0085175,
      "tags": {
        "access": "passengers",
        "amenity": "toilets",
        "male": "yes",
        "source": "survey"
      }
    },
    {
      "type": "node",
      "id": 2305721621,
      "lat": 51.5376847,
      "lon": -0.0354285,
      "tags": {
        "amenity": "toilets"
      }
    },
    {
      "type": "node",
      "id": 2312973174,
      "lat": 51.5219335,
      "lon": -0.3597861,
      "tags": {
        "amenity": "toilets"
      }
    },
    {
      "type": "node",
      "id": 2330456370,
      "lat": 51.686701,
      "lon": -0.032172,
      "tags": {
        "amenity": "toilets",
        "name": "Waltham Cross",
        "toilets:wheelchair": "yes",
        "wheelchair": "yes"
      }
    },
    {
      "type": "node",
      "id": 2333230992,
      "lat": 51.5198665,
      "lon": -0.0978166,
      "tags": {
        "addr:city": "London",
        "addr:housenumber": "140",
        "addr:postcode": "EC1A 9HA",
        "addr:street": "Long Lane",
        "amenity": "toilets",
        "fee": "yes",
        "female": "yes",
        "male": "yes",
        "wheelchair": "yes"
      }
    },
    {
      "type": "node",
      "id": 2334587384,
      "lat": 51.5281784,
      "lon": -0.3187803,
      "tags": {
        "amenity": "toilets",
        "fee": "yes",
        "wheelchair": "yes"
      }
    },
    {
      "type": "node",
      "id": 2348565614,
      "lat": 51.6251286,
      "lon": -0.010287,
      "tags": {
        "amenity": "toilets"
      }
    },
    {
      "type": "node",
      "id": 2350011165,
      "lat": 51.5685975,
      "lon": 0.0082932,
      "tags": {
        "access": "passengers",
        "amenity": "toilets",
        "female": "yes"
      }
    },
    {
      "type": "node",
      "id": 2364991741,
      "lat": 51.5471751,
      "lon": -0.1036619,
      "tags": {
        "amenity": "toilets",
        "fee": "yes"
      }
    },
    {
      "type": "node",
      "id": 2370652638,
      "lat": 51.5440182,
      "lon": -0.3062945,
      "tags": {
        "amenity": "toilets"
      }
    },
    {
      "type": "node",
      "id": 2372792826,
      "lat": 51.6317221,
      "lon": -0.1117038,
      "tags": {
        "amenity": "toilets"
      }
    },
    {
      "type": "node",
      "id": 2372792829,
      "lat": 51.6316442,
      "lon": -0.1117377,
      "tags": {
        "amenity": "toilets"
      }
    },
    {
      "type": "node",
      "id": 2375290856,
      "lat": 51.5545945,
      "lon": -0.3154195,
      "tags": {
        "amenity": "toilets"
      }
    },
    {
      "type": "node",
      "id": 2375916705,
      "lat": 51.5837625,
      "lon": -0.0204015,
      "tags": {
        "amenity": "toilets",
        "fee": "no",
        "wheelchair": "yes"
      }
    },
    {
      "type": "node",
      "id": 2377125867,
      "lat": 51.5526986,
      "lon": -0.3129059,
      "tags": {
        "amenity": "toilets"
      }
    },
    {
      "type": "node",
      "id": 2398829361,
      "lat": 51.3581855,
      "lon": 0.1951185,
      "tags": {
        "amenity": "toilets"
      }
    },
    {
      "type": "node",
      "id": 2398829364,
      "lat": 51.3591954,
      "lon": 0.1952673,
      "tags": {
        "amenity": "toilets"
      }
    },
    {
      "type": "node",
      "id": 2400989153,
      "lat": 51.5446098,
      "lon": -0.0200839,
      "tags": {
        "amenity": "toilets"
      }
    },
    {
      "type": "node",
      "id": 2400989158,
      "lat": 51.5477215,
      "lon": -0.0148668,
      "tags": {
        "amenity": "toilets"
      }
    },
    {
      "type": "node",
      "id": 2410984413,
      "lat": 51.4411336,
      "lon": -0.0613081,
      "tags": {
        "amenity": "toilets"
      }
    },
    {
      "type": "node",
      "id": 2414177242,
      "lat": 51.555451,
      "lon": -0.1513428,
      "tags": {
        "access": "permissive",
        "amenity": "toilets",
        "fee": "no",
        "name": "Disabled WC",
        "toilets:disposal": "flush",
        "unisex": "yes",
        "wheelchair": "yes"
      }
    },
    {
      "type": "node",
      "id": 2418380317,
      "lat": 51.4473227,
      "lon": -0.3158704,
      "tags": {
        "amenity": "toilets",
        "fee": "no"
      }
    },
    {
      "type": "node",
      "id": 2420135820,
      "lat": 51.4361545,
      "lon": -0.0554506,
      "tags": {
        "amenity": "toilets"
      }
    },
    {
      "type": "node",
      "id": 2423526391,
      "lat": 51.4452448,
      "lon": -0.3282487,
      "tags": {
        "amenity": "toilets"
      }
    },
    {
      "type": "node",
      "id": 2423526404,
      "lat": 51.4463392,
      "lon": -0.3257708,
      "tags": {
        "amenity": "toilets"
      }
    },
    {
      "type": "node",
      "id": 2423526455,
      "lat": 51.4477576,
      "lon": -0.3259476,
      "tags": {
        "amenity": "toilets"
      }
    },
    {
      "type": "node",
      "id": 2424720881,
      "lat": 51.4055623,
      "lon": -0.340653,
      "tags": {
        "amenity": "toilets",
        "fee": "no",
        "wheelchair": "yes"
      }
    },
    {
      "type": "node",
      "id": 2427879271,
      "lat": 51.5146203,
      "lon": -0.1421375,
      "tags": {
        "amenity": "toilets",
        "changing_table": "yes",
        "fee": "yes",
        "female": "yes",
        "male": "yes",
        "name": "Princes Street",
        "opening_hours": "24/7",
        "wheelchair": "yes"
      }
    },
    {
      "type": "node",
      "id": 2431238065,
      "lat": 51.619324,
      "lon": -0.087875,
      "tags": {
        "amenity": "toilets"
      }
    },
    {
      "type": "node",
      "id": 2434557269,
      "lat": 51.5324626,
      "lon": -0.2451912,
      "tags": {
        "access": "customers",
        "amenity": "toilets",
        "female": "yes",
        "male": "yes",
        "name": "Willesden Junction Platform 3",
        "toilets:disposal": "flush"
      }
    },
    {
      "type": "node",
      "id": 2446516812,
      "lat": 51.3367969,
      "lon": -0.053108,
      "tags": {
        "amenity": "toilets"
      }
    },
    {
      "type": "node",
      "id": 2448110827,
      "lat": 51.5445266,
      "lon": -0.0085875,
      "tags": {
        "amenity": "toilets",
        "fee": "no",
        "wheelchair": "yes"
      }
    },
    {
      "type": "node",
      "id": 2456520031,
      "lat": 51.5028988,
      "lon": -0.1192156,
      "tags": {
        "amenity": "toilets",
        "fee": "no",
        "wheelchair": "no"
      }
    },
    {
      "type": "node",
      "id": 2456547115,
      "lat": 51.5461435,
      "lon": -0.4818104,
      "tags": {
        "amenity": "toilets"
      }
    },
    {
      "type": "node",
      "id": 2460874570,
      "lat": 51.5217216,
      "lon": -0.5357247,
      "tags": {
        "amenity": "toilets"
      }
    },
    {
      "type": "node",
      "id": 2461260749,
      "lat": 51.4039523,
      "lon": -0.5138471,
      "tags": {
        "amenity": "toilets"
      }
    },
    {
      "type": "node",
      "id": 2467687629,
      "lat": 51.5677066,
      "lon": 0.0422234,
      "tags": {
        "amenity": "toilets"
      }
    },
    {
      "type": "node",
      "id": 2469134101,
      "lat": 51.5187399,
      "lon": -0.4880204,
      "tags": {
        "access": "permissive",
        "amenity": "toilets",
        "foot": "permissive",
        "name": "Public Toilet",
        "operator": "London Borough of Hillingdon",
        "source": "Visit to area on 22/09/2013",
        "toilets:disposal": "flush",
        "wheelchair": "yes"
      }
    },
    {
      "type": "node",
      "id": 2482261802,
      "lat": 51.4572113,
      "lon": 0.0052146,
      "tags": {
        "amenity": "toilets",
        "diaper": "yes",
        "female": "yes",
        "male": "yes",
        "name": "Manor House Gardens",
        "opening_hours": "Mo-Fr 08:00-16:00"
      }
    },
    {
      "type": "node",
      "id": 2482264460,
      "lat": 51.465956,
      "lon": 0.009657,
      "tags": {
        "amenity": "toilets",
        "female": "yes",
        "male": "yes",
        "name": "Blackheath Grove",
        "opening_hours": "24/7",
        "wheelchair": "yes"
      }
    },
    {
      "type": "node",
      "id": 2487888194,
      "lat": 51.45657,
      "lon": 0.050241,
      "tags": {
        "amenity": "toilets",
        "female": "yes",
        "male": "yes",
        "name": "Well Hall Gardens",
        "opening_hours": "Mo-Su 08:00-16:00",
        "wheelchair": "yes"
      }
    },
    {
      "type": "node",
      "id": 2496765570,
      "lat": 51.430281,
      "lon": 0.057799,
      "tags": {
        "amenity": "toilets",
        "female": "yes",
        "male": "yes",
        "name": "Queen's Gardens",
        "opening_hours": "Mo-Su 09:30-15:30"
      }
    },
    {
      "type": "node",
      "id": 2497930235,
      "lat": 51.4947617,
      "lon": -0.1431464,
      "tags": {
        "amenity": "toilets",
        "fee": "30p"
      }
    },
    {
      "type": "node",
      "id": 2528527069,
      "lat": 51.6233601,
      "lon": 0.2699779,
      "tags": {
        "amenity": "toilets"
      }
    },
    {
      "type": "node",
      "id": 2529636927,
      "lat": 51.6646977,
      "lon": 0.0401322,
      "tags": {
        "amenity": "toilets"
      }
    },
    {
      "type": "node",
      "id": 2541311406,
      "lat": 51.4267292,
      "lon": -0.054487,
      "tags": {
        "amenity": "toilets",
        "female": "yes",
        "male": "yes",
        "name": "Sydenham Station Approach",
        "opening_hours": "24/7",
        "wheelchair": "yes"
      }
    },
    {
      "type": "node",
      "id": 2544245188,
      "lat": 51.414984,
      "lon": -0.0531411,
      "tags": {
        "amenity": "toilets",
        "female": "yes",
        "male": "yes",
        "name": "Penge High Street",
        "opening_hours": "Mo-Su 08:00-18:00",
        "toilets:disposal": "flush",
        "wheelchair": "yes"
      }
    },
    {
      "type": "node",
      "id": 2576501832,
      "lat": 51.2749696,
      "lon": 0.1936695,
      "tags": {
        "access": "public",
        "amenity": "toilets"
      }
    },
    {
      "type": "node",
      "id": 2577066054,
      "lat": 51.301448,
      "lon": -0.490411,
      "tags": {
        "amenity": "toilets",
        "female": "yes",
        "male": "yes",
        "name": "Ripely Green",
        "wheelchair": "yes"
      }
    },
    {
      "type": "node",
      "id": 2602103844,
      "lat": 51.477445,
      "lon": 0.019619,
      "tags": {
        "amenity": "toilets",
        "fee": "yes",
        "female": "yes",
        "male": "yes",
        "name": "Bartley Park",
        "opening_hours": "24/7",
        "wheelchair": "yes"
      }
    },
    {
      "type": "node",
      "id": 2603515515,
      "lat": 51.7115095,
      "lon": 0.4357718,
      "tags": {
        "amenity": "toilets",
        "toilets:wheelchair": "yes",
        "wheelchair": "yes"
      }
    },
    {
      "type": "node",
      "id": 2623255971,
      "lat": 51.406686,
      "lon": 0.0140381,
      "tags": {
        "access": "permissive",
        "amenity": "toilets",
        "diaper": "yes",
        "female": "yes",
        "male": "yes",
        "name": "Sainsbury's",
        "opening_hours": "Mo-Sa 07:00-22:00; Su 11:00-17:00",
        "wheelchair": "yes"
      }
    },
    {
      "type": "node",
      "id": 2642154060,
      "lat": 51.4621576,
      "lon": -0.0125973,
      "tags": {
        "amenity": "toilets",
        "changing_table": "yes",
        "fee": "no",
        "female": "yes",
        "male": "yes",
        "name": "Lewisham Shopping Centre",
        "opening_hours": "Mo-Sa 09:00-19:00; Su 11:00-17:00",
        "wheelchair": "yes"
      }
    },
    {
      "type": "node",
      "id": 2677870016,
      "lat": 51.2711847,
      "lon": 0.1933808,
      "tags": {
        "amenity": "toilets"
      }
    },
    {
      "type": "node",
      "id": 2682671781,
      "lat": 51.4027885,
      "lon": 0.3872144,
      "tags": {
        "access": "customers",
        "amenity": "toilets",
        "drinking_water": "no",
        "entrance": "yes",
        "fee": "no",
        "toilets:disposal": "flush",
        "toilets:position": "seated;urinal",
        "wheelchair": "yes"
      }
    },
    {
      "type": "node",
      "id": 2702762671,
      "lat": 51.4870677,
      "lon": -0.2205297,
      "tags": {
        "access": "permissive",
        "amenity": "toilets",
        "fee": "no",
        "name": "Charing Cross Hospital Entrance",
        "operator": "Charing Cross Hospital",
        "toilets:disposal": "flush",
        "wheelchair": "yes"
      }
    },
    {
      "type": "node",
      "id": 2712313519,
      "lat": 51.481757,
      "lon": 0.040595,
      "tags": {
        "amenity": "toilets",
        "female": "yes",
        "male": "yes",
        "name": "Charlton Park",
        "opening_hours": "Mo-Su 09:00-17:00"
      }
    },
    {
      "type": "node",
      "id": 2714875181,
      "lat": 51.6872825,
      "lon": -0.017231,
      "tags": {
        "amenity": "toilets"
      }
    },
    {
      "type": "node",
      "id": 2727888114,
      "lat": 51.4766709,
      "lon": -0.0007458,
      "tags": {
        "amenity": "toilets",
        "charge": "0.20 \u00a3",
        "fee": "yes",
        "female": "yes",
        "male": "yes",
        "name": "Greenwich Park",
        "opening_hours": "Mo-Su 07:00-17:00",
        "wheelchair": "yes"
      }
    },
    {
      "type": "node",
      "id": 2738431694,
      "lat": 51.564936,
      "lon": -0.3522408,
      "tags": {
        "access": "yes",
        "amenity": "toilets",
        "fee": "yes",
        "operator": "Transport for London",
        "toilets:disposal": "flush",
        "wheelchair": "yes"
      }
    },
    {
      "type": "node",
      "id": 2738840989,
      "lat": 51.4777832,
      "lon": -0.0017495,
      "tags": {
        "access": "yes",
        "amenity": "toilets",
        "wheelchair": "yes"
      }
    },
    {
      "type": "node",
      "id": 2751700491,
      "lat": 51.4839684,
      "lon": -0.1073933,
      "tags": {
        "amenity": "toilets"
      }
    },
    {
      "type": "node",
      "id": 2779109323,
      "lat": 51.5170742,
      "lon": -0.176345,
      "tags": {
        "amenity": "toilets",
        "fee": "yes",
        "level": "-1",
        "source": "survey"
      }
    },
    {
      "type": "node",
      "id": 2804271421,
      "lat": 51.489551,
      "lon": 0.121217,
      "tags": {
        "amenity": "toilets",
        "female": "yes",
        "male": "yes",
        "name": "Knee Hill",
        "opening_hours": "24/7",
        "wheelchair": "yes"
      }
    },
    {
      "type": "node",
      "id": 2819588703,
      "lat": 51.481657,
      "lon": 0.069903,
      "tags": {
        "amenity": "toilets",
        "disused": "yes",
        "female": "yes",
        "male": "yes",
        "opening_hours": "Mo-Fr 08:00-17:00"
      }
    },
    {
      "type": "node",
      "id": 2819589206,
      "lat": 51.541199,
      "lon": -0.00228,
      "tags": {
        "amenity": "toilets",
        "female": "yes",
        "male": "yes",
        "name": "Stratford Station"
      }
    },
    {
      "type": "node",
      "id": 2841310910,
      "lat": 51.4173502,
      "lon": -0.0692462,
      "tags": {
        "access": "customers",
        "amenity": "toilets",
        "fee": "no"
      }
    },
    {
      "type": "node",
      "id": 2863274266,
      "lat": 51.4417482,
      "lon": -0.0614555,
      "tags": {
        "amenity": "toilets",
        "source": "survey"
      }
    },
    {
      "type": "node",
      "id": 2869264915,
      "lat": 51.4901701,
      "lon": -0.1728609,
      "tags": {
        "access": "public",
        "amenity": "toilets",
        "female": "yes",
        "male": "yes",
        "name": "Royal Marsden Hospital",
        "opening_hours": "Mo-Su 07:00-18:00",
        "wheelchair": "yes"
      }
    },
    {
      "type": "node",
      "id": 2869368501,
      "lat": 51.4611438,
      "lon": -0.0106424,
      "tags": {
        "amenity": "toilets",
        "changing_table": "no",
        "fee": "yes",
        "female": "yes",
        "male": "yes",
        "name": "Lewisham Market",
        "opening_hours": "24/7",
        "wheelchair": "yes"
      }
    },
    {
      "type": "node",
      "id": 2883510502,
      "lat": 51.42762,
      "lon": -0.039378,
      "tags": {
        "amenity": "toilets",
        "female": "yes",
        "male": "yes",
        "opening_hours": "24/7"
      }
    },
    {
      "type": "node",
      "id": 2894414189,
      "lat": 51.5560921,
      "lon": -0.2861669,
      "tags": {
        "amenity": "toilets",
        "fee": "\u00a30.20",
        "fee:note": "The event day urinals are free.",
        "fixme": "Trim position when Bing is updated.  The immediate area has been changed since Bing, but this building is in the clear so should be visible when the imagery is updated.",
        "note": "There is a secondary door on the South side for four, event day only, urinals.  Looks architect designed.",
        "source": "survey;Bing 2012",
        "survey:date": "2014-06-01",
        "wheelchair": "yes"
      }
    },
    {
      "type": "node",
      "id": 2897395303,
      "lat": 51.4888803,
      "lon": -0.0912393,
      "tags": {
        "access": "public",
        "amenity": "toilets",
        "opening_hours": "Tu-Fr 07:30-17:30"
      }
    },
    {
      "type": "node",
      "id": 2904959620,
      "lat": 51.5521114,
      "lon": -0.2958266,
      "tags": {
        "amenity": "toilets"
      }
    },
    {
      "type": "node",
      "id": 2918704738,
      "lat": 51.4733552,
      "lon": 0.0025463,
      "tags": {
        "amenity": "toilets"
      }
    },
    {
      "type": "node",
      "id": 2920200701,
      "lat": 51.4394349,
      "lon": -0.053537,
      "tags": {
        "amenity": "toilets",
        "female": "yes",
        "male": "yes",
        "name": "Forest Hill Station Car Park",
        "opening_hours": "24/7"
      }
    },
    {
      "type": "node",
      "id": 2924796320,
      "lat": 51.440465,
      "lon": -0.0623808,
      "tags": {
        "amenity": "toilets"
      }
    },
    {
      "type": "node",
      "id": 2949127696,
      "lat": 51.4619526,
      "lon": -0.1130333,
      "tags": {
        "amenity": "toilets",
        "fee": "yes",
        "fee:amount": "\u00a30.20"
      }
    },
    {
      "type": "node",
      "id": 2950089188,
      "lat": 51.4727711,
      "lon": -0.0684732,
      "tags": {
        "amenity": "toilets",
        "operator": "Morrisons"
      }
    },
    {
      "type": "node",
      "id": 2953188815,
      "lat": 51.7326793,
      "lon": 0.4641683,
      "tags": {
        "amenity": "toilets"
      }
    },
    {
      "type": "node",
      "id": 2953438640,
      "lat": 51.5367405,
      "lon": -0.2475592,
      "tags": {
        "amenity": "toilets"
      }
    },
    {
      "type": "node",
      "id": 2966603731,
      "lat": 51.2516217,
      "lon": 0.1151131,
      "tags": {
        "amenity": "toilets"
      }
    },
    {
      "type": "node",
      "id": 2972070089,
      "lat": 51.6493516,
      "lon": -0.3167943,
      "tags": {
        "amenity": "toilets"
      }
    },
    {
      "type": "node",
      "id": 2974747333,
      "lat": 51.2666456,
      "lon": 0.2050029,
      "tags": {
        "amenity": "toilets"
      }
    },
    {
      "type": "node",
      "id": 3014178390,
      "lat": 51.706199,
      "lon": -0.4376412,
      "tags": {
        "access": "public",
        "amenity": "toilets",
        "operator": "London Midland",
        "toilets:disposal": "flush"
      }
    },
    {
      "type": "node",
      "id": 3080941104,
      "lat": 51.2583747,
      "lon": 0.2703213,
      "tags": {
        "amenity": "toilets"
      }
    },
    {
      "type": "node",
      "id": 3084901346,
      "lat": 51.5474992,
      "lon": -0.2256705,
      "tags": {
        "amenity": "toilets"
      }
    },
    {
      "type": "node",
      "id": 3086646133,
      "lat": 51.5304622,
      "lon": -0.1260651,
      "tags": {
        "amenity": "toilets",
        "fee": "no",
        "female": "yes",
        "level": "0",
        "male": "yes",
        "wheelchair": "yes"
      }
    },
    {
      "type": "node",
      "id": 3091449341,
      "lat": 51.6337892,
      "lon": -0.0750065,
      "tags": {
        "access": "public",
        "amenity": "toilets",
        "operator": "Enfield Council",
        "toilets:disposal": "flush"
      }
    },
    {
      "type": "node",
      "id": 3111335328,
      "lat": 51.5883446,
      "lon": -0.4296307,
      "tags": {
        "amenity": "toilets",
        "note": "Approximate, from map at http://www.ruisliplidorailway.org/sites/ruisliplidorailway.org/files/images/NEW%20Lido%20Map%20with%202nd%20Car%20Park%20v2.0.jpg"
      }
    },
    {
      "type": "node",
      "id": 3111854829,
      "lat": 51.4632206,
      "lon": -0.2167608,
      "tags": {
        "amenity": "toilets",
        "diaper": "yes",
        "female": "yes",
        "male": "yes",
        "name": "Putney Exchange",
        "wheelchair": "yes"
      }
    },
    {
      "type": "node",
      "id": 3146283018,
      "lat": 51.5976904,
      "lon": -0.0502096,
      "tags": {
        "amenity": "toilets"
      }
    },
    {
      "type": "node",
      "id": 3170208861,
      "lat": 51.287189,
      "lon": -0.091589,
      "tags": {
        "amenity": "toilets",
        "female": "yes",
        "male": "yes",
        "opening_hours": "24/7",
        "wheelchair": "yes"
      }
    },
    {
      "type": "node",
      "id": 3186379852,
      "lat": 51.4029208,
      "lon": -0.3366514,
      "tags": {
        "amenity": "toilets"
      }
    },
    {
      "type": "node",
      "id": 3199946581,
      "lat": 51.5381989,
      "lon": 0.0792764,
      "tags": {
        "access": "yes",
        "amenity": "toilets",
        "note": "Small toilet in a circular structure, almost certainly automated"
      }
    },
    {
      "type": "node",
      "id": 3204648174,
      "lat": 51.392878,
      "lon": 0.1670832,
      "tags": {
        "access": "customers",
        "amenity": "toilets",
        "wheelchair": "yes"
      }
    },
    {
      "type": "node",
      "id": 3204648175,
      "lat": 51.3970384,
      "lon": 0.1743084,
      "tags": {
        "access": "customers",
        "amenity": "toilets",
        "changing_table": "yes",
        "toilets:wheelchair": "yes",
        "wheelchair": "yes"
      }
    },
    {
      "type": "node",
      "id": 3257353642,
      "lat": 51.5030805,
      "lon": -0.4199591,
      "tags": {
        "amenity": "toilets"
      }
    },
    {
      "type": "node",
      "id": 3260105785,
      "lat": 51.3727328,
      "lon": -0.4551047,
      "tags": {
        "amenity": "toilets",
        "indoor": "yes"
      }
    },
    {
      "type": "node",
      "id": 3269147193,
      "lat": 51.372599,
      "lon": -0.487874,
      "tags": {
        "amenity": "toilets",
        "fee": "no",
        "opening_hours": "Mo-Sa 00:00-24:00; Su 11:00-17:00",
        "toilets:disposal": "flush",
        "toilets:wheelchair": "yes",
        "wheelchair": "yes",
        "wheelchair:description": "Access by RADAR key. Step-free from dedicated Blue Badge spaces near Tesco entrance."
      }
    },
    {
      "type": "node",
      "id": 3269358623,
      "lat": 51.5139142,
      "lon": -0.0949309,
      "tags": {
        "amenity": "toilets",
        "level": "-1"
      }
    },
    {
      "type": "node",
      "id": 3269424658,
      "lat": 51.5134726,
      "lon": -0.0952537,
      "tags": {
        "amenity": "toilets",
        "level": "1"
      }
    },
    {
      "type": "node",
      "id": 3331123972,
      "lat": 51.6759886,
      "lon": 0.0021855,
      "tags": {
        "amenity": "toilets",
        "changing_table": "yes",
        "wheelchair": "yes"
      }
    },
    {
      "type": "node",
      "id": 3341983993,
      "lat": 51.5247411,
      "lon": -0.1235919,
      "tags": {
        "access": "customers",
        "amenity": "toilets",
        "diaper": "yes",
        "name": "Hunter Street Health Centre",
        "wheelchair": "yes"
      }
    },
    {
      "type": "node",
      "id": 3357569166,
      "lat": 51.5284942,
      "lon": -0.1324968,
      "tags": {
        "access": "yes",
        "amenity": "toilets",
        "description": "Toilets opposite mainline platform 1, on main concourse level, and outside the ticket line.",
        "fee": "no",
        "level": "0",
        "wheelchair": "no"
      }
    },
    {
      "type": "node",
      "id": 3393243407,
      "lat": 51.5519992,
      "lon": 0.2828566,
      "tags": {
        "access": "customers",
        "amenity": "toilets",
        "fee": "no",
        "toilets:disposal": "flush",
        "toilets:position": "seated;urinal",
        "wheelchair": "yes"
      }
    },
    {
      "type": "node",
      "id": 3393243758,
      "lat": 51.6235623,
      "lon": 0.2642362,
      "tags": {
        "amenity": "toilets",
        "toilets:disposal": "flush",
        "toilets:position": "seated;urinal"
      }
    },
    {
      "type": "node",
      "id": 3400236249,
      "lat": 51.3860827,
      "lon": -0.4308162,
      "tags": {
        "amenity": "toilets"
      }
    },
    {
      "type": "node",
      "id": 3400366392,
      "lat": 51.5125365,
      "lon": -0.0141464,
      "tags": {
        "access": "yes",
        "amenity": "toilets"
      }
    },
    {
      "type": "node",
      "id": 3412641820,
      "lat": 51.518135,
      "lon": -0.2066507,
      "tags": {
        "access": "yes",
        "amenity": "toilets"
      }
    },
    {
      "type": "node",
      "id": 3415870334,
      "lat": 51.4804959,
      "lon": -0.1945039,
      "tags": {
        "amenity": "toilets"
      }
    },
    {
      "type": "node",
      "id": 3415870376,
      "lat": 51.4799856,
      "lon": -0.1963291,
      "tags": {
        "amenity": "toilets"
      }
    },
    {
      "type": "node",
      "id": 3415875855,
      "lat": 51.4887146,
      "lon": -0.1647963,
      "tags": {
        "access": "customers",
        "amenity": "toilets",
        "level": "-1",
        "toilets:disposal": "flush",
        "unisex": "yes",
        "wheelchair": "yes"
      }
    },
    {
      "type": "node",
      "id": 3415877973,
      "lat": 51.4924043,
      "lon": -0.1568437,
      "tags": {
        "amenity": "toilets",
        "fee": "yes",
        "wheelchair": "no"
      }
    },
    {
      "type": "node",
      "id": 3415879309,
      "lat": 51.4923441,
      "lon": -0.1586273,
      "tags": {
        "amenity": "toilets",
        "fee": "no",
        "wheelchair": "limited"
      }
    },
    {
      "type": "node",
      "id": 3416271137,
      "lat": 51.4340074,
      "lon": -0.2814338,
      "tags": {
        "amenity": "toilets"
      }
    },
    {
      "type": "node",
      "id": 3453930440,
      "lat": 51.5087387,
      "lon": -0.0756504,
      "tags": {
        "amenity": "toilets",
        "changing_table": "yes",
        "female": "yes",
        "male": "yes",
        "wheelchair": "yes"
      }
    },
    {
      "type": "node",
      "id": 3529029771,
      "lat": 51.3921401,
      "lon": -0.3044409,
      "tags": {
        "access": "yes",
        "amenity": "toilets",
        "changing_table": "no",
        "level": "0",
        "male": "yes",
        "wheelchair": "no"
      }
    },
    {
      "type": "node",
      "id": 3551094015,
      "lat": 51.2735237,
      "lon": 0.0380501,
      "tags": {
        "amenity": "toilets",
        "toilets:wheelchair": "yes",
        "wheelchair": "yes"
      }
    },
    {
      "type": "node",
      "id": 3551103448,
      "lat": 51.2735417,
      "lon": 0.0420473,
      "tags": {
        "amenity": "toilets"
      }
    },
    {
      "type": "node",
      "id": 3551103807,
      "lat": 51.2718067,
      "lon": 0.0370173,
      "tags": {
        "access": "public",
        "amenity": "toilets",
        "name": "Petrol Station",
        "toilets:disposal": "flush",
        "unisex": "yes"
      }
    },
    {
      "type": "node",
      "id": 3551237828,
      "lat": 51.3052485,
      "lon": -0.41021,
      "tags": {
        "amenity": "toilets",
        "name": "Petrol Station Toilet",
        "wheelchair": "yes"
      }
    },
    {
      "type": "node",
      "id": 3551283263,
      "lat": 51.5641908,
      "lon": -0.0589184,
      "tags": {
        "amenity": "toilets",
        "name": "Petrol Station Toilets"
      }
    },
    {
      "type": "node",
      "id": 3568654021,
      "lat": 51.3390545,
      "lon": -0.1151549,
      "tags": {
        "amenity": "toilets"
      }
    },
    {
      "type": "node",
      "id": 3574199893,
      "lat": 51.4998394,
      "lon": 0.0031402,
      "tags": {
        "access": "yes",
        "amenity": "toilets",
        "female": "yes"
      }
    },
    {
      "type": "node",
      "id": 3578820612,
      "lat": 51.4838997,
      "lon": -0.0776527,
      "tags": {
        "amenity": "toilets"
      }
    },
    {
      "type": "node",
      "id": 3578820613,
      "lat": 51.4836374,
      "lon": -0.0841329,
      "tags": {
        "amenity": "toilets"
      }
    },
    {
      "type": "node",
      "id": 3578825664,
      "lat": 51.5072865,
      "lon": -0.0717199,
      "tags": {
        "access": "yes",
        "amenity": "toilets",
        "drinking_water": "no",
        "fee": "no",
        "female": "yes",
        "male": "yes",
        "opening_hours": "07:00-21:00",
        "toilets:disposal": "flush",
        "toilets:position": "seated;urinal"
      }
    },
    {
      "type": "node",
      "id": 3621917476,
      "lat": 51.4831654,
      "lon": -0.0051439,
      "tags": {
        "access": "yes",
        "amenity": "toilets",
        "toilets:disposal": "flush",
        "unisex": "yes"
      }
    },
    {
      "type": "node",
      "id": 3621921602,
      "lat": 51.4811948,
      "lon": -0.0039612,
      "tags": {
        "access": "yes",
        "amenity": "toilets",
        "toilets:disposal": "flush",
        "unisex": "yes"
      }
    },
    {
      "type": "node",
      "id": 3621922478,
      "lat": 51.4802074,
      "lon": -0.0059736,
      "tags": {
        "access": "yes",
        "amenity": "toilets",
        "toilets:disposal": "flush",
        "unisex": "yes"
      }
    },
    {
      "type": "node",
      "id": 3621926154,
      "lat": 51.4826483,
      "lon": -0.0085556,
      "tags": {
        "access": "yes",
        "amenity": "toilets",
        "fee": "no",
        "toilets:disposal": "flush",
        "toilets:wheelchair": "yes",
        "unisex": "yes",
        "wheelchair": "yes"
      }
    },
    {
      "type": "node",
      "id": 3624003386,
      "lat": 51.5180625,
      "lon": 0.0426415,
      "tags": {
        "amenity": "toilets",
        "source": "gps+mapnoter"
      }
    },
    {
      "type": "node",
      "id": 3641486889,
      "lat": 51.4128332,
      "lon": -0.3017151,
      "tags": {
        "amenity": "toilets"
      }
    },
    {
      "type": "node",
      "id": 3655730526,
      "lat": 51.484054,
      "lon": 0.013571,
      "tags": {
        "amenity": "toilets",
        "female": "yes",
        "male": "yes",
        "name": "Pistachios Cafe In Pleasaunce Park",
        "opening_hours": "Mo-Su 09:30-18:00"
      }
    },
    {
      "type": "node",
      "id": 3656106833,
      "lat": 51.5684943,
      "lon": 0.0707552,
      "tags": {
        "access": "yes",
        "amenity": "toilets"
      }
    },
    {
      "type": "node",
      "id": 3675330352,
      "lat": 51.4300494,
      "lon": 0.0257673,
      "tags": {
        "amenity": "toilets"
      }
    },
    {
      "type": "node",
      "id": 3678678349,
      "lat": 51.3644515,
      "lon": -0.0793641,
      "tags": {
        "amenity": "toilets",
        "male": "yes"
      }
    },
    {
      "type": "node",
      "id": 3678678350,
      "lat": 51.3644515,
      "lon": -0.0793332,
      "tags": {
        "amenity": "toilets",
        "female": "yes"
      }
    },
    {
      "type": "node",
      "id": 3684596449,
      "lat": 51.3897736,
      "lon": -0.4896014,
      "tags": {
        "access": "private",
        "amenity": "toilets",
        "operator": "The Camping and Caravanning Club"
      }
    },
    {
      "type": "node",
      "id": 3710942798,
      "lat": 51.5421618,
      "lon": -0.147715,
      "tags": {
        "amenity": "toilets",
        "fee": "yes",
        "level": "-1",
        "name": "Camden Stables Market",
        "wheelchair": "yes"
      }
    },
    {
      "type": "node",
      "id": 3717163096,
      "lat": 51.4634592,
      "lon": 0.1340346,
      "tags": {
        "amenity": "toilets",
        "male": "yes"
      }
    },
    {
      "type": "node",
      "id": 3717163097,
      "lat": 51.4634609,
      "lon": 0.1339595,
      "tags": {
        "amenity": "toilets",
        "female": "yes"
      }
    },
    {
      "type": "node",
      "id": 3764498529,
      "lat": 51.4422324,
      "lon": -0.0896523,
      "tags": {
        "amenity": "toilets"
      }
    },
    {
      "type": "node",
      "id": 3777957713,
      "lat": 51.5302161,
      "lon": -0.1913896,
      "tags": {
        "amenity": "toilets",
        "fee": "no"
      }
    },
    {
      "type": "node",
      "id": 3780963380,
      "lat": 51.6128187,
      "lon": -0.2963578,
      "tags": {
        "amenity": "toilets"
      }
    },
    {
      "type": "node",
      "id": 3794539887,
      "lat": 51.5176134,
      "lon": -0.0816208,
      "tags": {
        "amenity": "toilets",
        "unisex": "yes",
        "wheelchair": "yes"
      }
    },
    {
      "type": "node",
      "id": 3824553015,
      "lat": 51.5082564,
      "lon": 0.0090662,
      "tags": {
        "access": "yes",
        "amenity": "toilets",
        "toilets:disposal": "flush",
        "unisex": "yes"
      }
    },
    {
      "type": "node",
      "id": 3860006039,
      "lat": 51.4421853,
      "lon": -0.0016106,
      "tags": {
        "access": "Free,_but_often_out_of_action",
        "amenity": "toilets",
        "diaper": "no",
        "fee": "yes",
        "operator": "Lewisham Council",
        "toilets:disposal": "flush",
        "unisex": "yes"
      }
    },
    {
      "type": "node",
      "id": 3896841722,
      "lat": 51.3852458,
      "lon": -0.4216378,
      "tags": {
        "access": "public",
        "amenity": "toilets",
        "toilets:disposal": "flush",
        "toilets:position": "seated;urinal",
        "wheelchair": "yes"
      }
    },
    {
      "type": "node",
      "id": 3906081659,
      "lat": 51.5134805,
      "lon": -0.088616,
      "tags": {
        "amenity": "toilets",
        "fee": "yes",
        "level": "-1",
        "note": "in subway tunnel"
      }
    },
    {
      "type": "node",
      "id": 3906854041,
      "lat": 51.5503263,
      "lon": -0.2902373,
      "tags": {
        "access": "customers",
        "amenity": "toilets",
        "unisex": "yes"
      }
    },
    {
      "type": "node",
      "id": 3922715852,
      "lat": 51.5034852,
      "lon": -0.175276,
      "tags": {
        "amenity": "toilets",
        "charge": "0.20\u00a3",
        "fee": "yes",
        "opening_hours": "Mo-Su 05:00-00:00"
      }
    },
    {
      "type": "node",
      "id": 3974548723,
      "lat": 51.5513638,
      "lon": -0.0992444,
      "tags": {
        "amenity": "toilets",
        "fee": "yes",
        "source": "gps+mapnoter",
        "wheelchair": "yes"
      }
    },
    {
      "type": "node",
      "id": 3979329866,
      "lat": 51.6025463,
      "lon": -0.1332927,
      "tags": {
        "amenity": "toilets",
        "female": "yes"
      }
    },
    {
      "type": "node",
      "id": 3979329868,
      "lat": 51.602498,
      "lon": -0.1335891,
      "tags": {
        "amenity": "toilets",
        "male": "yes"
      }
    },
    {
      "type": "node",
      "id": 4055643986,
      "lat": 51.510489,
      "lon": -0.036375,
      "tags": {
        "access": "customers",
        "amenity": "toilets",
        "drinking_water": "no",
        "female": "yes",
        "male": "yes",
        "operator": "Limehouse Basin Marina",
        "toilets:position": "seated"
      }
    },
    {
      "type": "node",
      "id": 4081574329,
      "lat": 51.6018818,
      "lon": -0.0675271,
      "tags": {
        "access": "yes",
        "amenity": "toilets"
      }
    },
    {
      "type": "node",
      "id": 4085377275,
      "lat": 51.4666235,
      "lon": 0.0696354,
      "tags": {
        "access": "permissive",
        "amenity": "toilets",
        "fee": "no",
        "female": "yes",
        "operator": "Oxleas Wood Cafe",
        "toilets:disposal": "flush",
        "toilets:position": "seated"
      }
    },
    {
      "type": "node",
      "id": 4085377281,
      "lat": 51.4666718,
      "lon": 0.0698147,
      "tags": {
        "access": "permissive",
        "amenity": "toilets",
        "fee": "no",
        "male": "yes",
        "operator": "Oxleas Wood Cafe",
        "toilets:disposal": "flush",
        "toilets:position": "seated;urinal"
      }
    },
    {
      "type": "node",
      "id": 4095537117,
      "lat": 51.4731401,
      "lon": -0.4870691,
      "tags": {
        "amenity": "toilets",
        "fee": "no",
        "wheelchair": "yes"
      }
    },
    {
      "type": "node",
      "id": 4095537118,
      "lat": 51.4732593,
      "lon": -0.4885494,
      "tags": {
        "amenity": "toilets"
      }
    },
    {
      "type": "node",
      "id": 4107669709,
      "lat": 51.5211445,
      "lon": -0.2092594,
      "tags": {
        "amenity": "toilets",
        "location": "underground"
      }
    },
    {
      "type": "node",
      "id": 4130240424,
      "lat": 51.4931985,
      "lon": -0.0359248,
      "tags": {
        "access": "customers",
        "amenity": "toilets",
        "female": "yes",
        "male": "yes",
        "toilets:disposal": "flush",
        "toilets:position": "seated;urinal"
      }
    },
    {
      "type": "node",
      "id": 4155735358,
      "lat": 51.4936197,
      "lon": -0.0332387,
      "tags": {
        "access": "customers",
        "amenity": "toilets",
        "drinking_water": "yes",
        "fee": "no",
        "female": "yes",
        "male": "yes",
        "operator": "South Dock Marina",
        "toilets:disposal": "flush"
      }
    },
    {
      "type": "node",
      "id": 4161818289,
      "lat": 51.6188414,
      "lon": 0.3022013,
      "tags": {
        "access": "permissive",
        "amenity": "toilets",
        "fee": "no",
        "name": "Baytree shopping centre toilets",
        "toilets:disposal": "flush"
      }
    },
    {
      "type": "node",
      "id": 4161831192,
      "lat": 51.622098,
      "lon": 0.3032168,
      "tags": {
        "access": "permissive",
        "amenity": "toilets",
        "fee": "no",
        "name": "Sainsbury's toilets",
        "operator": "Sainsbury's",
        "toilets:disposal": "flush"
      }
    },
    {
      "type": "node",
      "id": 4161883787,
      "lat": 51.6136781,
      "lon": 0.3001573,
      "tags": {
        "amenity": "toilets",
        "operator": "TfL",
        "toilets:disposal": "flush"
      }
    },
    {
      "type": "node",
      "id": 4184217427,
      "lat": 51.5817496,
      "lon": -0.0613632,
      "tags": {
        "amenity": "toilets"
      }
    },
    {
      "type": "node",
      "id": 4200886795,
      "lat": 51.3433355,
      "lon": -0.2912365,
      "tags": {
        "amenity": "toilets"
      }
    },
    {
      "type": "node",
      "id": 4205182745,
      "lat": 51.5452949,
      "lon": -0.4753104,
      "tags": {
        "access": "permissive",
        "amenity": "toilets",
        "fee": "no",
        "operator": "intu",
        "toilets:disposal": "flush"
      }
    },
    {
      "type": "node",
      "id": 4211154680,
      "lat": 51.4473762,
      "lon": -0.3495194,
      "tags": {
        "amenity": "toilets"
      }
    },
    {
      "type": "node",
      "id": 4212829886,
      "lat": 51.4333457,
      "lon": -0.5095405,
      "tags": {
        "amenity": "toilets",
        "fixme": "check position"
      }
    },
    {
      "type": "node",
      "id": 4222314594,
      "lat": 51.348342,
      "lon": -0.3171962,
      "tags": {
        "amenity": "toilets"
      }
    },
    {
      "type": "node",
      "id": 4256172522,
      "lat": 51.3149212,
      "lon": -0.4780949,
      "tags": {
        "amenity": "toilets"
      }
    },
    {
      "type": "node",
      "id": 4274551602,
      "lat": 51.5036583,
      "lon": -0.113509,
      "tags": {
        "addr:city": "London",
        "addr:housename": "London Waterloo Station",
        "addr:postcode": "SE1 8SW",
        "amenity": "toilets",
        "fee": "no",
        "female": "no",
        "level": "1",
        "male": "yes",
        "name": "Waterloo Station",
        "opening_hours": "24/7"
      }
    },
    {
      "type": "node",
      "id": 4281624003,
      "lat": 51.3585347,
      "lon": -0.2287484,
      "tags": {
        "access": "permissive",
        "amenity": "toilets",
        "changing_table": "yes",
        "fee": "no",
        "toilets:disposal": "flush",
        "wheelchair": "yes"
      }
    },
    {
      "type": "node",
      "id": 4309664236,
      "lat": 51.4702767,
      "lon": -0.4561901,
      "tags": {
        "amenity": "toilets",
        "level": "1"
      }
    },
    {
      "type": "node",
      "id": 4309664258,
      "lat": 51.4710119,
      "lon": -0.4583976,
      "tags": {
        "amenity": "toilets",
        "level": "1"
      }
    },
    {
      "type": "node",
      "id": 4319635796,
      "lat": 51.4682058,
      "lon": -0.2283266,
      "tags": {
        "access": "private",
        "amenity": "toilets",
        "note": "for bus drivers only"
      }
    },
    {
      "type": "node",
      "id": 4320730261,
      "lat": 51.4488221,
      "lon": -0.0745675,
      "tags": {
        "amenity": "toilets"
      }
    },
    {
      "type": "node",
      "id": 4323353590,
      "lat": 51.5784544,
      "lon": -0.3175406,
      "tags": {
        "amenity": "toilets",
        "opening_hours": "Mo-Su 05:00-00:50",
        "operator": "London Underground"
      }
    },
    {
      "type": "node",
      "id": 4327904610,
      "lat": 51.5841857,
      "lon": -0.1770955,
      "tags": {
        "amenity": "toilets",
        "female": "yes"
      }
    },
    {
      "type": "node",
      "id": 4329936966,
      "lat": 51.4711808,
      "lon": -0.4587433,
      "tags": {
        "amenity": "toilets"
      }
    },
    {
      "type": "node",
      "id": 4329962757,
      "lat": 51.5082525,
      "lon": -0.1247442,
      "tags": {
        "amenity": "toilets"
      }
    },
    {
      "type": "node",
      "id": 4334058023,
      "lat": 51.5507332,
      "lon": -0.3153061,
      "tags": {
        "access": "private",
        "amenity": "toilets",
        "description": "To access these toilets, call a telephone number displayed on the wall of the building to ask for the code.",
        "operator": "TfL",
        "unisex": "yes"
      }
    },
    {
      "type": "node",
      "id": 4341841990,
      "lat": 51.5593437,
      "lon": -0.0119992,
      "tags": {
        "amenity": "toilets",
        "fee": "no"
      }
    },
    {
      "type": "node",
      "id": 4360230742,
      "lat": 51.4676179,
      "lon": -0.186839,
      "tags": {
        "access": "customers",
        "amenity": "toilets"
      }
    },
    {
      "type": "node",
      "id": 4360356630,
      "lat": 51.4700208,
      "lon": -0.4886338,
      "tags": {
        "amenity": "toilets"
      }
    },
    {
      "type": "node",
      "id": 4360359439,
      "lat": 51.4712204,
      "lon": -0.4880973,
      "tags": {
        "amenity": "toilets"
      }
    },
    {
      "type": "node",
      "id": 4360359448,
      "lat": 51.4713297,
      "lon": -0.4881241,
      "tags": {
        "amenity": "toilets"
      }
    },
    {
      "type": "node",
      "id": 4360359487,
      "lat": 51.4720212,
      "lon": -0.4880772,
      "tags": {
        "amenity": "toilets"
      }
    },
    {
      "type": "node",
      "id": 4360359587,
      "lat": 51.472984,
      "lon": -0.488495,
      "tags": {
        "amenity": "toilets"
      }
    },
    {
      "type": "node",
      "id": 4360359599,
      "lat": 51.4731258,
      "lon": -0.488404,
      "tags": {
        "amenity": "toilets"
      }
    },
    {
      "type": "node",
      "id": 4366433015,
      "lat": 51.5333862,
      "lon": -0.2186242,
      "tags": {
        "amenity": "toilets"
      }
    },
    {
      "type": "node",
      "id": 4367679255,
      "lat": 51.5047023,
      "lon": -0.0232172,
      "tags": {
        "amenity": "toilets",
        "opening_hours": "Mo-Fr 10:00-18:00",
        "source": "gps+mapnoter"
      }
    },
    {
      "type": "node",
      "id": 4376503053,
      "lat": 51.7091483,
      "lon": -0.316707,
      "tags": {
        "access": "customers",
        "amenity": "toilets",
        "diaper": "no",
        "fee": "no",
        "toilets:disposal": "flush",
        "unisex": "yes"
      }
    },
    {
      "type": "node",
      "id": 4381895537,
      "lat": 51.6483279,
      "lon": -0.0590157,
      "tags": {
        "amenity": "toilets",
        "toilets:wheelchair": "yes",
        "wheelchair": "yes"
      }
    },
    {
      "type": "node",
      "id": 4381895538,
      "lat": 51.6479651,
      "lon": -0.0472381,
      "tags": {
        "amenity": "toilets"
      }
    },
    {
      "type": "node",
      "id": 4381896048,
      "lat": 51.717444,
      "lon": -0.0374802,
      "tags": {
        "amenity": "toilets"
      }
    },
    {
      "type": "node",
      "id": 4381901961,
      "lat": 51.6073567,
      "lon": -0.0214996,
      "tags": {
        "amenity": "toilets"
      }
    },
    {
      "type": "node",
      "id": 4393353463,
      "lat": 51.5609762,
      "lon": 0.1629174,
      "tags": {
        "amenity": "toilets",
        "source": "gps+mapnoter"
      }
    },
    {
      "type": "node",
      "id": 4413996314,
      "lat": 51.479855,
      "lon": 0.1848361,
      "tags": {
        "amenity": "toilets",
        "source": "gps+mapnoter"
      }
    },
    {
      "type": "node",
      "id": 4427677262,
      "lat": 51.4022832,
      "lon": -0.3426643,
      "tags": {
        "amenity": "toilets"
      }
    },
    {
      "type": "node",
      "id": 4438342675,
      "lat": 51.4656157,
      "lon": -0.0595013,
      "tags": {
        "amenity": "toilets"
      }
    },
    {
      "type": "node",
      "id": 4440565084,
      "lat": 51.5413835,
      "lon": -0.1462842,
      "tags": {
        "access": "permissive",
        "amenity": "toilets",
        "female": "yes",
        "level": "1",
        "operator": "Camden Market"
      }
    },
    {
      "type": "node",
      "id": 4440565085,
      "lat": 51.5413747,
      "lon": -0.1463063,
      "tags": {
        "amenity": "toilets",
        "level": "1",
        "male": "yes",
        "operator": "Camden Market"
      }
    },
    {
      "type": "node",
      "id": 4440565086,
      "lat": 51.5413676,
      "lon": -0.1463293,
      "tags": {
        "amenity": "toilets",
        "diaper": "yes",
        "level": "1",
        "operator": "Camden Market",
        "unisex": "yes"
      }
    },
    {
      "type": "node",
      "id": 4455788939,
      "lat": 51.609469,
      "lon": -0.1884185,
      "tags": {
        "access": "customers",
        "amenity": "toilets",
        "description": "Platform 1 (Northbound)"
      }
    },
    {
      "type": "node",
      "id": 4457179028,
      "lat": 51.5886311,
      "lon": -0.0599434,
      "tags": {
        "access": "customers",
        "amenity": "toilets",
        "changing_table": "no",
        "description": "Platform 2",
        "fee": "no",
        "female": "yes",
        "level": "0",
        "male": "yes",
        "unisex": "no",
        "wheelchair": "yes"
      }
    },
    {
      "type": "node",
      "id": 4457814508,
      "lat": 51.4949828,
      "lon": -0.1247996,
      "tags": {
        "amenity": "toilets",
        "wheelchair": "yes"
      }
    },
    {
      "type": "node",
      "id": 4464099626,
      "lat": 51.6511532,
      "lon": -0.0811172,
      "tags": {
        "access": "yes",
        "amenity": "toilets",
        "fee": "no",
        "female": "yes",
        "male": "yes",
        "source": "gps+mapnoter",
        "toilets:wheelchair": "yes",
        "wheelchair": "yes"
      }
    },
    {
      "type": "node",
      "id": 4469006528,
      "lat": 51.4647602,
      "lon": 0.4320864,
      "tags": {
        "amenity": "toilets",
        "source": "survey",
        "survey:date": "2016-10-28"
      }
    },
    {
      "type": "node",
      "id": 4478049875,
      "lat": 51.5269979,
      "lon": -0.0133074,
      "tags": {
        "amenity": "toilets",
        "source": "gps+mapnoter"
      }
    },
    {
      "type": "node",
      "id": 4491414089,
      "lat": 51.5225235,
      "lon": -0.1628621,
      "tags": {
        "amenity": "toilets",
        "female": "yes",
        "note": "This is the ladies and disabled toilets and also unisex baby change."
      }
    },
    {
      "type": "node",
      "id": 4524942689,
      "lat": 51.5532008,
      "lon": -0.0257241,
      "tags": {
        "amenity": "toilets"
      }
    },
    {
      "type": "node",
      "id": 4566694745,
      "lat": 51.4544135,
      "lon": -0.1937723,
      "tags": {
        "amenity": "toilets",
        "toilets:wheelchair": "yes",
        "wheelchair": "yes"
      }
    },
    {
      "type": "node",
      "id": 4567026607,
      "lat": 51.4540587,
      "lon": -0.191205,
      "tags": {
        "amenity": "toilets"
      }
    },
    {
      "type": "node",
      "id": 4567026608,
      "lat": 51.4573286,
      "lon": -0.1901989,
      "tags": {
        "amenity": "toilets"
      }
    },
    {
      "type": "node",
      "id": 4567034574,
      "lat": 51.4468638,
      "lon": -0.1805846,
      "tags": {
        "amenity": "toilets"
      }
    },
    {
      "type": "node",
      "id": 4567034575,
      "lat": 51.4436413,
      "lon": -0.2085566,
      "tags": {
        "amenity": "toilets"
      }
    },
    {
      "type": "node",
      "id": 4567035489,
      "lat": 51.4497744,
      "lon": -0.2419556,
      "tags": {
        "amenity": "toilets"
      }
    },
    {
      "type": "node",
      "id": 4567035490,
      "lat": 51.4392309,
      "lon": -0.2457868,
      "tags": {
        "access": "customers",
        "amenity": "toilets",
        "operator": "Asda"
      }
    },
    {
      "type": "node",
      "id": 4567035491,
      "lat": 51.4408691,
      "lon": -0.2391446,
      "tags": {
        "amenity": "toilets",
        "name": "cemetery toilets"
      }
    },
    {
      "type": "node",
      "id": 4567035492,
      "lat": 51.4314102,
      "lon": -0.1458924,
      "tags": {
        "amenity": "toilets"
      }
    },
    {
      "type": "node",
      "id": 4579912550,
      "lat": 51.6030786,
      "lon": -0.2632249,
      "tags": {
        "access": "yes",
        "amenity": "toilets",
        "level": "0"
      }
    },
    {
      "type": "node",
      "id": 4579990529,
      "lat": 51.5358031,
      "lon": -0.1235315,
      "tags": {
        "access": "customers",
        "amenity": "toilets",
        "changing_table": "yes",
        "fee": "no",
        "level": "0",
        "operator": "Waitrose",
        "toilets:disposal": "flush",
        "wheelchair": "yes"
      }
    },
    {
      "type": "node",
      "id": 4579990530,
      "lat": 51.5240516,
      "lon": -0.1231764,
      "tags": {
        "access": "customers",
        "amenity": "toilets",
        "fee": "no",
        "level": "-2",
        "wheelchair": "designated"
      }
    },
    {
      "type": "node",
      "id": 4581905439,
      "lat": 51.3626539,
      "lon": 0.3557549,
      "tags": {
        "amenity": "toilets"
      }
    },
    {
      "type": "node",
      "id": 4596756830,
      "lat": 51.2667793,
      "lon": 0.2057622,
      "tags": {
        "amenity": "toilets"
      }
    },
    {
      "type": "node",
      "id": 4612002370,
      "lat": 51.5414322,
      "lon": -0.076278,
      "tags": {
        "access": "yes",
        "amenity": "toilets",
        "unisex": "yes"
      }
    },
    {
      "type": "node",
      "id": 4621757869,
      "lat": 51.420709,
      "lon": -0.2047659,
      "tags": {
        "amenity": "toilets",
        "level": "0",
        "wheelchair": "yes"
      }
    },
    {
      "type": "node",
      "id": 4628761925,
      "lat": 51.5225894,
      "lon": -0.1637331,
      "tags": {
        "access": "customers",
        "amenity": "toilets",
        "fee": "30p",
        "male": "yes"
      }
    },
    {
      "type": "node",
      "id": 4656901789,
      "lat": 51.5941691,
      "lon": -0.1089291,
      "tags": {
        "amenity": "toilets",
        "toilets:wheelchair": "yes",
        "wheelchair": "yes"
      }
    },
    {
      "type": "node",
      "id": 4664432362,
      "lat": 51.6306218,
      "lon": -0.1793341,
      "tags": {
        "access": "customers",
        "amenity": "toilets",
        "fee": "no",
        "female": "no",
        "male": "yes"
      }
    },
    {
      "type": "node",
      "id": 4664432363,
      "lat": 51.6305819,
      "lon": -0.1790417,
      "tags": {
        "access": "customers",
        "amenity": "toilets",
        "fee": "no",
        "female": "yes",
        "male": "no"
      }
    },
    {
      "type": "node",
      "id": 4697353378,
      "lat": 51.5589092,
      "lon": -0.2815796,
      "tags": {
        "access": "permissive",
        "amenity": "toilets",
        "diaper": "room",
        "opening_hours": "Mo-Fr 08:30-20:00,Sa-Su 09:00-17:00"
      }
    },
    {
      "type": "node",
      "id": 4706665125,
      "lat": 51.5033948,
      "lon": -0.0953394,
      "tags": {
        "amenity": "toilets",
        "disabled": "yes",
        "fee": "no",
        "unisex": "yes"
      }
    },
    {
      "type": "node",
      "id": 4706953989,
      "lat": 51.6503697,
      "lon": -0.1940091,
      "tags": {
        "access": "customers",
        "amenity": "toilets"
      }
    },
    {
      "type": "node",
      "id": 4720024771,
      "lat": 51.2460128,
      "lon": -0.5208197,
      "tags": {
        "amenity": "toilets",
        "diaper": "yes",
        "name": "Park and Ride",
        "toilets:wheelchair": "yes",
        "unisex": "yes",
        "wheelchair": "yes",
        "wheelchair:description": "Two all user unisex toilets doors open outward, one with baby changing, in waiting room. Waiting room has powered door, opens outward."
      }
    },
    {
      "type": "node",
      "id": 4720960083,
      "lat": 51.5861807,
      "lon": -0.220031,
      "tags": {
        "amenity": "toilets",
        "source": "gps+mapnoter"
      }
    },
    {
      "type": "node",
      "id": 4737758545,
      "lat": 51.4209287,
      "lon": -0.2046139,
      "tags": {
        "amenity": "toilets",
        "level": "2",
        "opening_hours": "Mo-Fr 09:30-19:00; Th 09:30-20:00; Sa 09:00-18:00; Su,PH 11:00-17:00",
        "toilets:wheelchair": "yes",
        "wheelchair": "yes"
      }
    },
    {
      "type": "node",
      "id": 4742451106,
      "lat": 51.6524435,
      "lon": -0.0908226,
      "tags": {
        "amenity": "toilets"
      }
    },
    {
      "type": "node",
      "id": 4782862053,
      "lat": 51.719771,
      "lon": 0.1453049,
      "tags": {
        "amenity": "toilets"
      }
    },
    {
      "type": "node",
      "id": 4799258126,
      "lat": 51.4219314,
      "lon": -0.2002116,
      "tags": {
        "amenity": "toilets"
      }
    },
    {
      "type": "node",
      "id": 4807140253,
      "lat": 51.3451552,
      "lon": -0.4759318,
      "tags": {
        "access": "customers",
        "amenity": "toilets"
      }
    },
    {
      "type": "node",
      "id": 4807140254,
      "lat": 51.3449408,
      "lon": -0.4751861,
      "tags": {
        "access": "customers",
        "amenity": "toilets"
      }
    },
    {
      "type": "node",
      "id": 4811523921,
      "lat": 51.5068781,
      "lon": -0.0676531,
      "tags": {
        "amenity": "toilets",
        "operator": "Waitrose"
      }
    },
    {
      "type": "node",
      "id": 4815428300,
      "lat": 51.5068543,
      "lon": -0.0727647,
      "tags": {
        "access": "yes",
        "amenity": "toilets",
        "fee": "no",
        "toilets:disposal": "flush"
      }
    },
    {
      "type": "node",
      "id": 4838748453,
      "lat": 51.4817591,
      "lon": 0.0013783,
      "tags": {
        "amenity": "toilets"
      }
    },
    {
      "type": "node",
      "id": 4847771921,
      "lat": 51.4461108,
      "lon": -0.0856549,
      "tags": {
        "amenity": "toilets"
      }
    },
    {
      "type": "node",
      "id": 4849778022,
      "lat": 51.4431274,
      "lon": -0.1520857,
      "tags": {
        "amenity": "toilets"
      }
    },
    {
      "type": "node",
      "id": 4851412025,
      "lat": 51.5667344,
      "lon": -0.1463356,
      "tags": {
        "amenity": "toilets"
      }
    },
    {
      "type": "node",
      "id": 4851421021,
      "lat": 51.5667074,
      "lon": -0.1468413,
      "tags": {
        "amenity": "toilets"
      }
    },
    {
      "type": "node",
      "id": 4863339870,
      "lat": 51.6922337,
      "lon": -0.0412953,
      "tags": {
        "amenity": "toilets",
        "source": "gps+mapnoter"
      }
    },
    {
      "type": "node",
      "id": 4863526002,
      "lat": 51.496184,
      "lon": -0.1088642,
      "tags": {
        "access": "yes",
        "amenity": "toilets",
        "fee": "no",
        "male": "yes",
        "toilets:disposal": "flush"
      }
    },
    {
      "type": "node",
      "id": 4863526003,
      "lat": 51.4961824,
      "lon": -0.1083251,
      "tags": {
        "access": "yes",
        "amenity": "toilets",
        "fee": "no",
        "female": "yes",
        "toilets:disposal": "flush"
      }
    },
    {
      "type": "node",
      "id": 4902669770,
      "lat": 51.4186423,
      "lon": -0.3056176,
      "tags": {
        "amenity": "toilets"
      }
    },
    {
      "type": "node",
      "id": 4954395594,
      "lat": 51.5043142,
      "lon": -0.0900486,
      "tags": {
        "access": "customers",
        "amenity": "toilets",
        "male": "yes"
      }
    },
    {
      "type": "node",
      "id": 4970696521,
      "lat": 51.4898921,
      "lon": -0.2118541,
      "tags": {
        "amenity": "toilets"
      }
    },
    {
      "type": "node",
      "id": 4974949722,
      "lat": 51.5387013,
      "lon": 0.0212274,
      "tags": {
        "access": "yes",
        "amenity": "toilets",
        "wheelchair": "yes"
      }
    },
    {
      "type": "node",
      "id": 5023986922,
      "lat": 51.6055074,
      "lon": -0.1848349,
      "tags": {
        "amenity": "toilets"
      }
    },
    {
      "type": "node",
      "id": 5032800660,
      "lat": 51.6016087,
      "lon": 0.4452172,
      "tags": {
        "amenity": "toilets",
        "level": "0"
      }
    },
    {
      "type": "node",
      "id": 5032800682,
      "lat": 51.6012884,
      "lon": 0.4457624,
      "tags": {
        "amenity": "toilets"
      }
    },
    {
      "type": "node",
      "id": 5037491463,
      "lat": 51.5127644,
      "lon": -0.3023976,
      "tags": {
        "access": "yes",
        "amenity": "toilets",
        "changing_table": "yes",
        "fee": "no",
        "level": "0",
        "wheelchair": "designated"
      }
    },
    {
      "type": "node",
      "id": 5037491489,
      "lat": 51.5126904,
      "lon": -0.302394,
      "tags": {
        "access": "yes",
        "amenity": "toilets",
        "fee": "no",
        "level": "1",
        "wheelchair": "yes"
      }
    },
    {
      "type": "node",
      "id": 5061630776,
      "lat": 51.601055,
      "lon": -0.1926495,
      "tags": {
        "access": "customers",
        "amenity": "toilets",
        "fee": "no",
        "level": "-1",
        "operator": "London Underground"
      }
    },
    {
      "type": "node",
      "id": 5077107923,
      "lat": 51.564067,
      "lon": 0.2533255,
      "tags": {
        "amenity": "toilets"
      }
    },
    {
      "type": "node",
      "id": 5078803318,
      "lat": 51.5409112,
      "lon": 0.2149637,
      "tags": {
        "amenity": "toilets"
      }
    },
    {
      "type": "node",
      "id": 5082630954,
      "lat": 51.4708912,
      "lon": 0.076605,
      "tags": {
        "access": "private",
        "amenity": "toilets",
        "diaper": "no",
        "fee": "no",
        "female": "yes",
        "toilets:disposal": "chemical"
      }
    },
    {
      "type": "node",
      "id": 5092782340,
      "lat": 51.3216712,
      "lon": -0.2022389,
      "tags": {
        "amenity": "toilets"
      }
    },
    {
      "type": "node",
      "id": 5094419724,
      "lat": 51.693602,
      "lon": 0.1138252,
      "tags": {
        "amenity": "toilets",
        "operator": "TfL"
      }
    },
    {
      "type": "node",
      "id": 5101927589,
      "lat": 51.562466,
      "lon": -0.3515925,
      "tags": {
        "amenity": "toilets"
      }
    },
    {
      "type": "node",
      "id": 5109300712,
      "lat": 51.4947197,
      "lon": -0.1828038,
      "tags": {
        "access": "yes",
        "amenity": "toilets",
        "fee": "yes"
      }
    },
    {
      "type": "node",
      "id": 5149207432,
      "lat": 51.532504,
      "lon": -0.1273606,
      "tags": {
        "amenity": "toilets",
        "disabled": "yes",
        "gender": "both",
        "level": "0",
        "note": "in the corner beyond boots, disabled loo is in slightly different place",
        "source": "survey"
      }
    },
    {
      "type": "node",
      "id": 5149835481,
      "lat": 51.5670721,
      "lon": -0.4898163,
      "tags": {
        "amenity": "toilets"
      }
    },
    {
      "type": "node",
      "id": 5184195871,
      "lat": 51.4994992,
      "lon": -0.1191955,
      "tags": {
        "access": "yes",
        "amenity": "toilets"
      }
    },
    {
      "type": "node",
      "id": 5221290060,
      "lat": 51.3669068,
      "lon": -0.0024819,
      "tags": {
        "amenity": "toilets"
      }
    },
    {
      "type": "node",
      "id": 5222968781,
      "lat": 51.5854209,
      "lon": -0.0542886,
      "tags": {
        "amenity": "toilets",
        "wheelchair": "yes"
      }
    },
    {
      "type": "node",
      "id": 5222968784,
      "lat": 51.5854176,
      "lon": -0.0541008,
      "tags": {
        "amenity": "toilets",
        "wheelchair": "no"
      }
    },
    {
      "type": "node",
      "id": 5222989805,
      "lat": 51.4376844,
      "lon": 0.2721105,
      "tags": {
        "amenity": "toilets",
        "female": "yes",
        "male": "yes",
        "name": "Upper Thames Walk",
        "toilets:disposal": "flush",
        "wheelchair": "yes"
      }
    },
    {
      "type": "node",
      "id": 5223718252,
      "lat": 51.3761761,
      "lon": -0.09298,
      "tags": {
        "amenity": "toilets",
        "fixme": "locate more exactly on platform 2, in relation to cafe.",
        "wheelchair:description": "On platform 2, outside waiting room. RADAR Key, but toilet not yet checked."
      }
    },
    {
      "type": "node",
      "id": 5229697621,
      "lat": 51.5089832,
      "lon": -0.187824,
      "tags": {
        "access": "yes",
        "amenity": "toilets",
        "description": "Children's Toilet ",
        "toilets:disposal": "flush",
        "unisex": "yes"
      }
    },
    {
      "type": "node",
      "id": 5235997585,
      "lat": 51.3562928,
      "lon": -0.4640302,
      "tags": {
        "amenity": "toilets",
        "name": "Bus Museum",
        "wheelchair": "yes",
        "wheelchair:description": "At far corner from entrance to Bus building, behind trolleybus. Building has ramped entrance, wide aisles and level floor."
      }
    },
    {
      "type": "node",
      "id": 5235997587,
      "lat": 51.3550952,
      "lon": -0.4646471,
      "tags": {
        "amenity": "toilets",
        "name": "Vickers Building",
        "toilets:wheelchair": "yes",
        "wheelchair": "yes",
        "wheelchair:description": "Entrance opposite Vimy Pavilion"
      }
    },
    {
      "type": "node",
      "id": 5235997588,
      "lat": 51.3541957,
      "lon": -0.4653847,
      "tags": {
        "amenity": "toilets",
        "name": "Jackson Shed",
        "toilets:wheelchair": "yes",
        "wheelchair": "yes",
        "wheelchair:description": "Signposted entrance has narrow doorway. Wider access through Grand Prix exhibition area (via exit or entrance)."
      }
    },
    {
      "type": "node",
      "id": 5235997590,
      "lat": 51.3545341,
      "lon": -0.464336,
      "tags": {
        "amenity": "toilets"
      }
    },
    {
      "type": "node",
      "id": 5255508005,
      "lat": 51.2603029,
      "lon": -0.1448138,
      "tags": {
        "amenity": "toilets",
        "operator": "Community Centre",
        "wheelchair": "yes",
        "wheelchair:description": "Accessible toilet in cafe area."
      }
    },
    {
      "type": "node",
      "id": 5260192173,
      "lat": 51.3758825,
      "lon": -0.0142209,
      "tags": {
        "amenity": "toilets"
      }
    },
    {
      "type": "node",
      "id": 5261647721,
      "lat": 51.4621493,
      "lon": -0.0125573,
      "tags": {
        "addr:street": "Molesworth Street Lewisham",
        "amenity": "toilets",
        "changing_table": "yes",
        "fee": "no",
        "toilets": "yes",
        "toilets:wheelchair": "yes",
        "wheelchair": "yes",
        "wheelchair:description": "Unisex Accessible toilets via RADAR key as well as (?inaccessible for wheelchair users) separate ladies / gents. NO Changing Places toilet."
      }
    },
    {
      "type": "node",
      "id": 5262929022,
      "lat": 51.5312595,
      "lon": -0.1245645,
      "tags": {
        "amenity": "toilets",
        "fee": "yes",
        "female": "yes",
        "level": "1",
        "male": "yes"
      }
    },
    {
      "type": "node",
      "id": 5264553921,
      "lat": 51.4701877,
      "lon": -0.4761198,
      "tags": {
        "amenity": "toilets"
      }
    },
    {
      "type": "node",
      "id": 5277698895,
      "lat": 51.5258272,
      "lon": -0.0878417,
      "tags": {
        "access": "yes",
        "amenity": "toilets",
        "layer": "-1"
      }
    },
    {
      "type": "node",
      "id": 5296052589,
      "lat": 51.5059262,
      "lon": -0.1320697,
      "tags": {
        "amenity": "toilets"
      }
    },
    {
      "type": "node",
      "id": 5300606621,
      "lat": 51.5045681,
      "lon": -0.118609,
      "tags": {
        "amenity": "toilets"
      }
    },
    {
      "type": "node",
      "id": 5300643105,
      "lat": 51.5077721,
      "lon": -0.109912,
      "tags": {
        "amenity": "toilets",
        "wheelchair": "yes"
      }
    },
    {
      "type": "node",
      "id": 5304712302,
      "lat": 51.5082516,
      "lon": -0.1092228,
      "tags": {
        "amenity": "toilets",
        "name": "First Floor In Between Shops"
      }
    },
    {
      "type": "node",
      "id": 5313673129,
      "lat": 51.5051488,
      "lon": -0.0220934,
      "tags": {
        "amenity": "toilets",
        "level": "0",
        "level:ref": "-1"
      }
    },
    {
      "type": "node",
      "id": 5314102337,
      "lat": 51.4401761,
      "lon": 0.368345,
      "tags": {
        "access": "yes",
        "amenity": "toilets",
        "diaper": "yes",
        "fee": "no",
        "female": "yes",
        "operator": "Gravesham Borough Council",
        "toilets:disposal": "flush"
      }
    },
    {
      "type": "node",
      "id": 5349696328,
      "lat": 51.4701865,
      "lon": -0.4504312,
      "tags": {
        "amenity": "toilets",
        "level": "5"
      }
    },
    {
      "type": "node",
      "id": 5382831954,
      "lat": 51.61787,
      "lon": -0.1854819,
      "tags": {
        "access": "customers",
        "amenity": "toilets",
        "changing_table": "no",
        "fee": "no",
        "toilets:disposal": "flush",
        "unisex": "yes",
        "wheelchair": "no"
      }
    },
    {
      "type": "node",
      "id": 5405291324,
      "lat": 51.5646628,
      "lon": -0.0238435,
      "tags": {
        "amenity": "toilets",
        "fee": "no",
        "level": "1",
        "note": "toilets happen to be upstairs, but are open to the public",
        "operator": "Kukoolala Cafe",
        "unisex": "yes",
        "wheelchair": "no"
      }
    },
    {
      "type": "node",
      "id": 5438701444,
      "lat": 51.5464437,
      "lon": -0.0740211,
      "tags": {
        "access": "permissive",
        "amenity": "toilets",
        "changing_table": "no",
        "fee": "no",
        "supervised": "no",
        "toilets:disposal": "flush",
        "toilets:handwashing": "yes",
        "toilets:num_chambers": "3",
        "toilets:paper_supplied": "yes",
        "toilets:wheelchair": "no",
        "unisex": "yes"
      }
    },
    {
      "type": "node",
      "id": 5453873202,
      "lat": 51.7126811,
      "lon": -0.4486188,
      "tags": {
        "amenity": "toilets"
      }
    },
    {
      "type": "node",
      "id": 5457538760,
      "lat": 51.4293449,
      "lon": -0.5471154,
      "tags": {
        "amenity": "toilets",
        "wheelchair": "yes"
      }
    },
    {
      "type": "node",
      "id": 5500941000,
      "lat": 51.702987,
      "lon": -0.0239672,
      "tags": {
        "access": "disabled only",
        "amenity": "toilets",
        "fee": "no",
        "operator": "Cheshunt Station"
      }
    },
    {
      "type": "node",
      "id": 5502892901,
      "lat": 51.5464559,
      "lon": -0.0740801,
      "tags": {
        "access": "permissive",
        "amenity": "toilets",
        "fee": "no",
        "toilets:disposal": "flush",
        "toilets:num_chambers": "1",
        "toilets:paper_supplied": "yes",
        "toilets:supervised": "no",
        "toilets:wheelchair": "yes",
        "unisex": "yes"
      }
    },
    {
      "type": "node",
      "id": 5503897889,
      "lat": 51.5359146,
      "lon": -0.2109713,
      "tags": {
        "access": "customers",
        "amenity": "toilets",
        "toilets:disposal": "flush",
        "unisex": "yes"
      }
    },
    {
      "type": "node",
      "id": 5535361621,
      "lat": 51.5970831,
      "lon": 0.0317576,
      "tags": {
        "access": "no",
        "amenity": "toilets",
        "diaper": "no",
        "fee": "no",
        "unisex": "yes"
      }
    },
    {
      "type": "node",
      "id": 5539667077,
      "lat": 51.4633918,
      "lon": -0.3014611,
      "tags": {
        "amenity": "toilets",
        "level": "0",
        "male": "yes"
      }
    },
    {
      "type": "node",
      "id": 5539667078,
      "lat": 51.463388,
      "lon": -0.3015154,
      "tags": {
        "amenity": "toilets",
        "female": "yes",
        "level": "0"
      }
    },
    {
      "type": "node",
      "id": 5539667079,
      "lat": 51.4633905,
      "lon": -0.3014874,
      "tags": {
        "amenity": "toilets",
        "level": "0",
        "unisex": "yes",
        "wheelchair": "yes"
      }
    },
    {
      "type": "node",
      "id": 5551893121,
      "lat": 51.59021,
      "lon": -0.1425277,
      "tags": {
        "amenity": "toilets",
        "opening_hours": "Mo-Su 09:00-18:00",
        "operator": "Harringey council"
      }
    },
    {
      "type": "node",
      "id": 5573989327,
      "lat": 51.5042057,
      "lon": -0.1084676,
      "tags": {
        "amenity": "toilets",
        "male": "yes"
      }
    },
    {
      "type": "node",
      "id": 5573989328,
      "lat": 51.5041792,
      "lon": -0.1084162,
      "tags": {
        "amenity": "toilets",
        "female": "yes"
      }
    },
    {
      "type": "node",
      "id": 5584749375,
      "lat": 51.4821817,
      "lon": -0.296267,
      "tags": {
        "amenity": "toilets"
      }
    },
    {
      "type": "node",
      "id": 5662049906,
      "lat": 51.7170009,
      "lon": -0.3560191,
      "tags": {
        "access": "private",
        "amenity": "toilets"
      }
    },
    {
      "type": "node",
      "id": 5662126096,
      "lat": 51.6667567,
      "lon": 0.3840335,
      "tags": {
        "amenity": "toilets"
      }
    },
    {
      "type": "node",
      "id": 5679385378,
      "lat": 51.3799348,
      "lon": -0.3526893,
      "tags": {
        "amenity": "toilets",
        "note": "Only marked \"this facility is open when the station is staffed\""
      }
    },
    {
      "type": "node",
      "id": 5679807381,
      "lat": 51.3294445,
      "lon": -0.4121466,
      "tags": {
        "amenity": "toilets",
        "fee": "yes"
      }
    },
    {
      "type": "node",
      "id": 5680159422,
      "lat": 51.3267674,
      "lon": -0.4442965,
      "tags": {
        "amenity": "toilets",
        "level": "0",
        "name": "Gothic Tower"
      }
    },
    {
      "type": "node",
      "id": 5680159515,
      "lat": 51.3303762,
      "lon": -0.4215883,
      "tags": {
        "access": "customers",
        "amenity": "toilets"
      }
    },
    {
      "type": "node",
      "id": 5684579965,
      "lat": 51.5876901,
      "lon": 0.0805672,
      "tags": {
        "amenity": "toilets",
        "fee": "no"
      }
    },
    {
      "type": "node",
      "id": 5695146921,
      "lat": 51.4503028,
      "lon": -0.0605383,
      "tags": {
        "amenity": "toilets"
      }
    },
    {
      "type": "node",
      "id": 5718576950,
      "lat": 51.5393228,
      "lon": 0.03078,
      "tags": {
        "amenity": "toilets"
      }
    },
    {
      "type": "node",
      "id": 5760381483,
      "lat": 51.5047878,
      "lon": -0.0855069,
      "tags": {
        "amenity": "toilets",
        "level": "0"
      }
    },
    {
      "type": "node",
      "id": 5769092053,
      "lat": 51.3085414,
      "lon": -0.079548,
      "tags": {
        "amenity": "toilets",
        "operator": "Tandridge District Council"
      }
    },
    {
      "type": "node",
      "id": 5786854596,
      "lat": 51.4038536,
      "lon": -0.2475273,
      "tags": {
        "amenity": "toilets"
      }
    },
    {
      "type": "node",
      "id": 5825154022,
      "lat": 51.3213851,
      "lon": -0.412701,
      "tags": {
        "amenity": "toilets"
      }
    },
    {
      "type": "node",
      "id": 5828020109,
      "lat": 51.544059,
      "lon": -0.0075914,
      "tags": {
        "amenity": "toilets",
        "level": "1"
      }
    },
    {
      "type": "node",
      "id": 5828020154,
      "lat": 51.542978,
      "lon": -0.0066061,
      "tags": {
        "amenity": "toilets",
        "level": "1"
      }
    },
    {
      "type": "node",
      "id": 5828118109,
      "lat": 51.5440258,
      "lon": -0.0073888,
      "tags": {
        "amenity": "toilets",
        "level": "0"
      }
    },
    {
      "type": "node",
      "id": 5832201258,
      "lat": 51.375117,
      "lon": -0.0940896,
      "tags": {
        "addr:city": "Croydon",
        "addr:housename": "Boxpark Croydon",
        "addr:housenumber": "99",
        "addr:postcode": "CR0 1LD",
        "addr:street": "George Street",
        "addr:unit": "75",
        "amenity": "toilets",
        "disabled": "yes",
        "level": "1",
        "male": "yes"
      }
    },
    {
      "type": "node",
      "id": 5832201259,
      "lat": 51.3752407,
      "lon": -0.0936356,
      "tags": {
        "addr:city": "Croydon",
        "addr:housename": "Boxpark Croydon",
        "addr:housenumber": "99",
        "addr:postcode": "CR0 1LD",
        "addr:street": "George Street",
        "addr:unit": "76",
        "amenity": "toilets",
        "disabled": "yes",
        "female": "yes",
        "level": "1"
      }
    },
    {
      "type": "node",
      "id": 5832675301,
      "lat": 51.3751809,
      "lon": -0.0935881,
      "tags": {
        "addr:city": "Croydon",
        "addr:housename": "Boxpark Croydon",
        "addr:housenumber": "99",
        "addr:postcode": "CR0 1LD",
        "addr:street": "George Street",
        "addr:unit": "73",
        "amenity": "toilets",
        "disabled": "yes",
        "female": "yes"
      }
    },
    {
      "type": "node",
      "id": 5832675302,
      "lat": 51.375186,
      "lon": -0.0935546,
      "tags": {
        "addr:city": "Croydon",
        "addr:housename": "Boxpark Croydon",
        "addr:housenumber": "99",
        "addr:postcode": "CR0 1LD",
        "addr:street": "George Street",
        "addr:unit": "74",
        "amenity": "toilets",
        "disabled": "yes",
        "male": "yes"
      }
    },
    {
      "type": "node",
      "id": 5834430785,
      "lat": 51.5097401,
      "lon": -0.1401405,
      "tags": {
        "amenity": "toilets",
        "operator": "Royal Academy"
      }
    },
    {
      "type": "node",
      "id": 5836474312,
      "lat": 51.5598328,
      "lon": -0.2367323,
      "tags": {
        "access": "yes",
        "amenity": "toilets",
        "diaper": "yes",
        "fee": "no",
        "toilets:disposal": "flush",
        "unisex": "yes"
      }
    },
    {
      "type": "node",
      "id": 5852151104,
      "lat": 51.6652647,
      "lon": -0.5104978,
      "tags": {
        "access": "customers",
        "amenity": "toilets"
      }
    },
    {
      "type": "node",
      "id": 5852151148,
      "lat": 51.6646272,
      "lon": -0.5104472,
      "tags": {
        "access": "customers",
        "amenity": "toilets"
      }
    },
    {
      "type": "node",
      "id": 5853212687,
      "lat": 51.5041545,
      "lon": 0.0460568,
      "tags": {
        "amenity": "toilets"
      }
    },
    {
      "type": "node",
      "id": 5853212688,
      "lat": 51.504115,
      "lon": 0.0472049,
      "tags": {
        "amenity": "toilets"
      }
    },
    {
      "type": "node",
      "id": 5853220194,
      "lat": 51.5040807,
      "lon": 0.048369,
      "tags": {
        "amenity": "toilets"
      }
    },
    {
      "type": "node",
      "id": 5853230885,
      "lat": 51.5042215,
      "lon": 0.0451993,
      "tags": {
        "amenity": "toilets"
      }
    },
    {
      "type": "node",
      "id": 5859622321,
      "lat": 51.722737,
      "lon": -0.5313919,
      "tags": {
        "access": "yes",
        "amenity": "toilets"
      }
    },
    {
      "type": "node",
      "id": 5862311594,
      "lat": 51.474243,
      "lon": -0.2956595,
      "tags": {
        "access": "yes",
        "amenity": "toilets",
        "fee": "no",
        "female": "yes",
        "layer": "-1",
        "male": "yes",
        "note": "accessed via spiral staircase",
        "wheelchair": "no"
      }
    },
    {
      "type": "node",
      "id": 5875390641,
      "lat": 51.3642952,
      "lon": -0.4850775,
      "tags": {
        "amenity": "toilets"
      }
    },
    {
      "type": "node",
      "id": 5885044836,
      "lat": 51.4834793,
      "lon": -0.1473767,
      "tags": {
        "amenity": "toilets"
      }
    },
    {
      "type": "node",
      "id": 5909432502,
      "lat": 51.3544005,
      "lon": -0.4642236,
      "tags": {
        "amenity": "toilets",
        "name": "RADAR key"
      }
    },
    {
      "type": "node",
      "id": 5913516206,
      "lat": 51.3177567,
      "lon": -0.3077317,
      "tags": {
        "amenity": "toilets"
      }
    },
    {
      "type": "node",
      "id": 5991546633,
      "lat": 51.4503848,
      "lon": -0.3291003,
      "tags": {
        "access": "customers",
        "amenity": "toilets",
        "fee": "no",
        "male": "yes",
        "opening_hours": "Mo-Sa 06:30-20:30; Su 08:30-18:30",
        "operator": "SW Trains"
      }
    },
    {
      "type": "node",
      "id": 5998153232,
      "lat": 51.450244,
      "lon": -0.3294531,
      "tags": {
        "access": "customers",
        "amenity": "toilets",
        "fee": "no",
        "female": "yes",
        "male": "yes",
        "operator": "SW Trains",
        "wheelchair": "yes"
      }
    },
    {
      "type": "node",
      "id": 5998153233,
      "lat": 51.4503459,
      "lon": -0.3292076,
      "tags": {
        "access": "customers",
        "amenity": "toilets",
        "fee": "no",
        "female": "yes",
        "opening_hours": "Mo-Sa 06:30-20:30; Su 08:30-18:30",
        "operator": "SW Trains"
      }
    },
    {
      "type": "node",
      "id": 6018047359,
      "lat": 51.5072382,
      "lon": -0.0757987,
      "tags": {
        "amenity": "toilets"
      }
    },
    {
      "type": "node",
      "id": 6018774285,
      "lat": 51.3111061,
      "lon": -0.0768645,
      "tags": {
        "amenity": "toilets"
      }
    },
    {
      "type": "node",
      "id": 6022819586,
      "lat": 51.3763579,
      "lon": -0.1307348,
      "tags": {
        "amenity": "toilets"
      }
    },
    {
      "type": "node",
      "id": 6031077785,
      "lat": 51.2577052,
      "lon": -0.0014,
      "tags": {
        "amenity": "toilets"
      }
    },
    {
      "type": "node",
      "id": 6037730267,
      "lat": 51.56215,
      "lon": -0.0211095,
      "tags": {
        "amenity": "toilets"
      }
    },
    {
      "type": "node",
      "id": 6050565987,
      "lat": 51.5187293,
      "lon": -0.1569147,
      "tags": {
        "access": "yes",
        "amenity": "toilets"
      }
    },
    {
      "type": "node",
      "id": 6058547448,
      "lat": 51.6011717,
      "lon": -0.2096723,
      "tags": {
        "amenity": "toilets",
        "fee": "no",
        "wheelchair": "yes"
      }
    },
    {
      "type": "node",
      "id": 6083188694,
      "lat": 51.4699279,
      "lon": -0.4492701,
      "tags": {
        "amenity": "toilets",
        "drinking_water": "yes",
        "level": "5"
      }
    },
    {
      "type": "node",
      "id": 6083767639,
      "lat": 51.4697312,
      "lon": -0.449134,
      "tags": {
        "amenity": "toilets",
        "level": "4"
      }
    },
    {
      "type": "node",
      "id": 6083767651,
      "lat": 51.4691851,
      "lon": -0.4487454,
      "tags": {
        "amenity": "toilets",
        "level": "4"
      }
    },
    {
      "type": "node",
      "id": 6115440849,
      "lat": 51.335515,
      "lon": -0.1703,
      "tags": {
        "amenity": "toilets"
      }
    },
    {
      "type": "node",
      "id": 6124886086,
      "lat": 51.395926,
      "lon": -0.060359,
      "tags": {
        "access": "yes",
        "amenity": "toilets",
        "fee": "no",
        "note": "check web site for opening times",
        "toilets:access": "key",
        "toilets:disposal": "flush",
        "toilets:wheelchair": "yes",
        "unisex": "yes",
        "wheelchair": "yes"
      }
    },
    {
      "type": "node",
      "id": 6135585975,
      "lat": 51.6283141,
      "lon": 0.2949394,
      "tags": {
        "access": "yes",
        "amenity": "toilets",
        "changing_table": "no",
        "fee": "no",
        "operator": "Robin Hood Pub",
        "toilets:disposal": "flush"
      }
    },
    {
      "type": "node",
      "id": 6150633869,
      "lat": 51.4654542,
      "lon": -0.2676275,
      "tags": {
        "amenity": "toilets"
      }
    },
    {
      "type": "node",
      "id": 6157980830,
      "lat": 51.2604865,
      "lon": -0.5479978,
      "tags": {
        "amenity": "toilets",
        "female": "yes",
        "male": "yes",
        "toilets:access": "yes",
        "toilets:disposal": "flush",
        "toilets:wheelchair": "yes"
      }
    },
    {
      "type": "node",
      "id": 6186367342,
      "lat": 51.3344427,
      "lon": -0.2695001,
      "tags": {
        "access": "yes",
        "amenity": "toilets",
        "toilets:disposal": "flush",
        "toilets:wheelchair": "yes",
        "wheelchair": "yes"
      }
    },
    {
      "type": "node",
      "id": 6186367347,
      "lat": 51.3343054,
      "lon": -0.2693869,
      "tags": {
        "amenity": "toilets",
        "toilets:disposal": "flush"
      }
    },
    {
      "type": "node",
      "id": 6186598980,
      "lat": 51.3345856,
      "lon": -0.2529279,
      "tags": {
        "amenity": "toilets",
        "diaper": "no",
        "toilets:disposal": "flush"
      }
    },
    {
      "type": "node",
      "id": 6187763335,
      "lat": 51.6085952,
      "lon": 0.1937959,
      "tags": {
        "amenity": "toilets"
      }
    },
    {
      "type": "node",
      "id": 6188554884,
      "lat": 51.3415491,
      "lon": -0.2571547,
      "tags": {
        "amenity": "toilets",
        "toilets:disposal": "flush",
        "wheelchair": "yes"
      }
    },
    {
      "type": "node",
      "id": 6190560275,
      "lat": 51.3321339,
      "lon": -0.2694278,
      "tags": {
        "amenity": "toilets",
        "name": "Ashley Centre Toilets",
        "toilets:wheelchair": "yes",
        "wheelchair": "yes"
      }
    },
    {
      "type": "node",
      "id": 6247813743,
      "lat": 51.5179223,
      "lon": -0.1070343,
      "tags": {
        "amenity": "toilets"
      }
    },
    {
      "type": "node",
      "id": 6256910047,
      "lat": 51.511436,
      "lon": -0.123422,
      "tags": {
        "amenity": "toilets",
        "male": "yes",
        "wheelchair": "no"
      }
    },
    {
      "type": "node",
      "id": 6256910048,
      "lat": 51.5114861,
      "lon": -0.123479,
      "tags": {
        "amenity": "toilets",
        "female": "yes",
        "wheelchair": "no"
      }
    },
    {
      "type": "node",
      "id": 6259748096,
      "lat": 51.5109363,
      "lon": -0.118206,
      "tags": {
        "amenity": "toilets"
      }
    },
    {
      "type": "node",
      "id": 6267008784,
      "lat": 51.3259528,
      "lon": -0.273404,
      "tags": {
        "amenity": "toilets"
      }
    },
    {
      "type": "node",
      "id": 6286377572,
      "lat": 51.5143385,
      "lon": 0.0084545,
      "tags": {
        "access": "customers",
        "amenity": "toilets",
        "changing_table": "no",
        "opening_hours": "Mo-Sa 07:00-21:00; Su 09:00-16:00; PH 09:00-16:00",
        "toilets:disposal": "flush",
        "unisex": "yes",
        "wheelchair": "yes"
      }
    },
    {
      "type": "node",
      "id": 6286377573,
      "lat": 51.5140865,
      "lon": 0.0087151,
      "tags": {
        "access": "customers",
        "amenity": "toilets",
        "changing_table": "yes"
      }
    },
    {
      "type": "node",
      "id": 6293625820,
      "lat": 51.4855865,
      "lon": 0.2834946,
      "tags": {
        "amenity": "toilets",
        "toilets:disposal": "flush"
      }
    },
    {
      "type": "node",
      "id": 6293625841,
      "lat": 51.4893712,
      "lon": 0.2826856,
      "tags": {
        "amenity": "toilets",
        "toilets:disposal": "flush"
      }
    },
    {
      "type": "node",
      "id": 6293625842,
      "lat": 51.4893807,
      "lon": 0.2827698,
      "tags": {
        "amenity": "toilets",
        "toilets:disposal": "flush"
      }
    },
    {
      "type": "node",
      "id": 6293625846,
      "lat": 51.4891923,
      "lon": 0.2828905,
      "tags": {
        "amenity": "toilets",
        "toilets:disposal": "flush"
      }
    },
    {
      "type": "node",
      "id": 6293625848,
      "lat": 51.4890909,
      "lon": 0.2827392,
      "tags": {
        "amenity": "toilets",
        "toilets:disposal": "flush"
      }
    },
    {
      "type": "node",
      "id": 6306815704,
      "lat": 51.325089,
      "lon": -0.2733785,
      "tags": {
        "amenity": "toilets"
      }
    },
    {
      "type": "node",
      "id": 6306815705,
      "lat": 51.3251095,
      "lon": -0.2725141,
      "tags": {
        "amenity": "toilets"
      }
    },
    {
      "type": "node",
      "id": 6343022013,
      "lat": 51.4412139,
      "lon": -0.4527531,
      "tags": {
        "amenity": "toilets",
        "changing_table": "yes",
        "fee": "no",
        "toilets:disposal": "flush",
        "wheelchair": "yes"
      }
    },
    {
      "type": "node",
      "id": 6372218451,
      "lat": 51.688727,
      "lon": -0.0170025,
      "tags": {
        "access": "customers",
        "amenity": "toilets",
        "level": "1"
      }
    },
    {
      "type": "node",
      "id": 6378632671,
      "lat": 51.2896986,
      "lon": 0.1939416,
      "tags": {
        "access": "permissive",
        "amenity": "toilets",
        "female": "yes",
        "wheelchair": "yes"
      }
    },
    {
      "type": "node",
      "id": 6380360270,
      "lat": 51.5284709,
      "lon": -0.1326286,
      "tags": {
        "access": "yes",
        "amenity": "toilets",
        "description": "Toilets opposite mainline platform 3, on main concourse level, and outside the ticket line. These are specificcally for disabled/wheelchair users.",
        "fee": "no",
        "level": "0",
        "wheelchair": "yes"
      }
    },
    {
      "type": "node",
      "id": 6396831550,
      "lat": 51.7050772,
      "lon": 0.4689992,
      "tags": {
        "amenity": "toilets",
        "unisex": "yes",
        "wheelchair": "yes"
      }
    },
    {
      "type": "node",
      "id": 6423249000,
      "lat": 51.4483965,
      "lon": -0.0080051,
      "tags": {
        "amenity": "toilets",
        "toilets:disposal": "flush",
        "toilets:position": "seated",
        "unisex": "yes"
      }
    },
    {
      "type": "node",
      "id": 6423249001,
      "lat": 51.4483739,
      "lon": -0.0080044,
      "tags": {
        "amenity": "toilets",
        "toilets:disposal": "flush",
        "toilets:position": "seated",
        "unisex": "yes"
      }
    },
    {
      "type": "node",
      "id": 6438528685,
      "lat": 51.5081354,
      "lon": -0.0951132,
      "tags": {
        "amenity": "toilets"
      }
    },
    {
      "type": "node",
      "id": 6448615485,
      "lat": 51.4711935,
      "lon": -0.4522345,
      "tags": {
        "amenity": "toilets"
      }
    },
    {
      "type": "node",
      "id": 6456440095,
      "lat": 51.3558632,
      "lon": -0.2143231,
      "tags": {
        "amenity": "toilets",
        "opening_hours": "Mo-Fr 06:00-13:30; Sa 06:30-13:30; Su 08:30-14:30"
      }
    },
    {
      "type": "node",
      "id": 6468153251,
      "lat": 51.46927,
      "lon": -0.4480411,
      "tags": {
        "amenity": "toilets",
        "level": "4",
        "wheelchair": "designated"
      }
    },
    {
      "type": "node",
      "id": 6476447386,
      "lat": 51.5194376,
      "lon": -0.1320006,
      "tags": {
        "amenity": "toilets"
      }
    },
    {
      "type": "node",
      "id": 6478668385,
      "lat": 51.5165109,
      "lon": -0.1266753,
      "tags": {
        "amenity": "toilets"
      }
    },
    {
      "type": "node",
      "id": 6479019785,
      "lat": 51.5155804,
      "lon": -0.1269117,
      "tags": {
        "amenity": "toilets"
      }
    },
    {
      "type": "node",
      "id": 6488376485,
      "lat": 51.5426781,
      "lon": -0.1489344,
      "tags": {
        "amenity": "toilets"
      }
    },
    {
      "type": "node",
      "id": 6489248277,
      "lat": 51.4013261,
      "lon": -0.3083502,
      "tags": {
        "amenity": "toilets"
      }
    },
    {
      "type": "node",
      "id": 6491202829,
      "lat": 51.647847,
      "lon": -0.186326,
      "tags": {
        "amenity": "toilets",
        "female": "yes"
      }
    },
    {
      "type": "node",
      "id": 6491202830,
      "lat": 51.6478937,
      "lon": -0.1862692,
      "tags": {
        "amenity": "toilets",
        "male": "yes"
      }
    },
    {
      "type": "node",
      "id": 6504290089,
      "lat": 51.4893964,
      "lon": 0.0161368,
      "tags": {
        "amenity": "toilets"
      }
    },
    {
      "type": "node",
      "id": 6508473419,
      "lat": 51.537821,
      "lon": -0.0604605,
      "tags": {
        "amenity": "toilets"
      }
    },
    {
      "type": "node",
      "id": 6515180156,
      "lat": 51.4979222,
      "lon": -0.2104424,
      "tags": {
        "amenity": "toilets"
      }
    },
    {
      "type": "node",
      "id": 6516189584,
      "lat": 51.4627125,
      "lon": -0.1117103,
      "tags": {
        "amenity": "toilets"
      }
    },
    {
      "type": "node",
      "id": 6516593059,
      "lat": 51.4494639,
      "lon": -0.1089491,
      "tags": {
        "amenity": "toilets"
      }
    },
    {
      "type": "node",
      "id": 6516857902,
      "lat": 51.4637314,
      "lon": -0.1123229,
      "tags": {
        "amenity": "toilets"
      }
    },
    {
      "type": "node",
      "id": 6518234248,
      "lat": 51.4950024,
      "lon": -0.0545799,
      "tags": {
        "amenity": "toilets"
      }
    },
    {
      "type": "node",
      "id": 6533516565,
      "lat": 51.5427046,
      "lon": -0.1724515,
      "tags": {
        "amenity": "toilets",
        "level": "0",
        "unisex": "yes",
        "wheelchair": "yes"
      }
    },
    {
      "type": "node",
      "id": 6546219301,
      "lat": 51.4679829,
      "lon": -0.2467934,
      "tags": {
        "access": "yes",
        "amenity": "toilets",
        "male": "yes"
      }
    },
    {
      "type": "node",
      "id": 6546219302,
      "lat": 51.4680728,
      "lon": -0.2466516,
      "tags": {
        "access": "yes",
        "amenity": "toilets",
        "female": "yes",
        "wheelchair": "yes"
      }
    },
    {
      "type": "node",
      "id": 6560160725,
      "lat": 51.4881478,
      "lon": -0.2114458,
      "tags": {
        "amenity": "toilets"
      }
    },
    {
      "type": "node",
      "id": 6560160741,
      "lat": 51.4879324,
      "lon": -0.212583,
      "tags": {
        "amenity": "toilets"
      }
    },
    {
      "type": "node",
      "id": 6561669264,
      "lat": 51.5316631,
      "lon": -0.1261765,
      "tags": {
        "amenity": "toilets",
        "level": "0"
      }
    },
    {
      "type": "node",
      "id": 6568064192,
      "lat": 51.4353541,
      "lon": -0.1449165,
      "tags": {
        "amenity": "toilets"
      }
    },
    {
      "type": "node",
      "id": 6574126755,
      "lat": 51.2603994,
      "lon": -0.1447076,
      "tags": {
        "amenity": "toilets",
        "wheelchair": "no",
        "wheelchair:description": "nearby accessible toilet in cafe area."
      }
    },
    {
      "type": "node",
      "id": 6579951772,
      "lat": 51.2576408,
      "lon": -0.472295,
      "tags": {
        "access": "customers",
        "amenity": "toilets"
      }
    },
    {
      "type": "node",
      "id": 6598856043,
      "lat": 51.5054891,
      "lon": -0.0894683,
      "tags": {
        "access": "yes",
        "amenity": "toilets",
        "fee": "no",
        "female": "yes",
        "male": "yes",
        "wheelchair": "yes"
      }
    },
    {
      "type": "node",
      "id": 6600832805,
      "lat": 51.4185604,
      "lon": -0.0187327,
      "tags": {
        "amenity": "toilets",
        "operator": "Copeland Park & Bussey Building"
      }
    },
    {
      "type": "node",
      "id": 6600986785,
      "lat": 51.4788247,
      "lon": -0.3135414,
      "tags": {
        "amenity": "toilets"
      }
    },
    {
      "type": "node",
      "id": 6604788931,
      "lat": 51.3848609,
      "lon": -0.4214334,
      "tags": {
        "access": "yes",
        "amenity": "toilets",
        "diaper": "yes",
        "toilets:disposal": "flush",
        "unisex": "yes",
        "wheelchair": "yes"
      }
    },
    {
      "type": "node",
      "id": 6618806819,
      "lat": 51.5109371,
      "lon": -0.0137926,
      "tags": {
        "amenity": "toilets",
        "operator": "Poplar Public Baths"
      }
    },
    {
      "type": "node",
      "id": 6618806823,
      "lat": 51.5115381,
      "lon": -0.0144884,
      "tags": {
        "amenity": "toilets",
        "operator": "Idea Store"
      }
    },
    {
      "type": "node",
      "id": 6634154541,
      "lat": 51.4196013,
      "lon": -0.0177401,
      "tags": {
        "amenity": "toilets"
      }
    },
    {
      "type": "node",
      "id": 6684935288,
      "lat": 51.5046924,
      "lon": -0.1750974,
      "tags": {
        "amenity": "toilets"
      }
    },
    {
      "type": "node",
      "id": 6744402820,
      "lat": 51.5048475,
      "lon": -0.2184447,
      "tags": {
        "amenity": "toilets",
        "fee": "yes"
      }
    },
    {
      "type": "node",
      "id": 6749369683,
      "lat": 51.4797592,
      "lon": -0.151133,
      "tags": {
        "amenity": "toilets"
      }
    },
    {
      "type": "node",
      "id": 6760744253,
      "lat": 51.41986,
      "lon": -0.0152028,
      "tags": {
        "access": "customers",
        "amenity": "toilets",
        "toilets:disposal": "chemical",
        "wheelchair": "limited"
      }
    },
    {
      "type": "node",
      "id": 6782229094,
      "lat": 51.4770458,
      "lon": -0.2851493,
      "tags": {
        "access": "customers",
        "amenity": "toilets"
      }
    },
    {
      "type": "node",
      "id": 6787693511,
      "lat": 51.4593817,
      "lon": -0.2598038,
      "tags": {
        "access": "customers",
        "amenity": "toilets",
        "changing_table": "yes",
        "toilets:disposal": "flush",
        "unisex": "yes",
        "wheelchair": "yes"
      }
    },
    {
      "type": "node",
      "id": 6795663398,
      "lat": 51.5011353,
      "lon": -0.1380452,
      "tags": {
        "amenity": "toilets",
        "child": "only",
        "female": "yes",
        "male": "yes",
        "supervised": "yes"
      }
    },
    {
      "type": "node",
      "id": 6797069046,
      "lat": 51.4063153,
      "lon": -0.3395236,
      "tags": {
        "access": "customers",
        "amenity": "toilets"
      }
    },
    {
      "type": "node",
      "id": 6800355801,
      "lat": 51.620932,
      "lon": 0.3041708,
      "tags": {
        "access": "yes",
        "amenity": "toilets",
        "changing_table": "yes",
        "name": "Brentwood Public Toilets",
        "operator": "Brentwood County Council",
        "toilets:disposal": "flush",
        "unisex": "yes",
        "wheelchair": "yes"
      }
    },
    {
      "type": "node",
      "id": 6842041287,
      "lat": 51.486217,
      "lon": -0.1234805,
      "tags": {
        "amenity": "toilets",
        "note": "Urinal only",
        "opening_hours": "24/7",
        "toilets:position": "urinal"
      }
    },
    {
      "type": "node",
      "id": 6880436588,
      "lat": 51.3529877,
      "lon": 0.1907402,
      "tags": {
        "amenity": "toilets"
      }
    },
    {
      "type": "node",
      "id": 6925008198,
      "lat": 51.4937141,
      "lon": 0.2180406,
      "tags": {
        "amenity": "toilets",
        "wheelchair": "yes"
      }
    },
    {
      "type": "node",
      "id": 6946467435,
      "lat": 51.4924583,
      "lon": -0.1483346,
      "tags": {
        "amenity": "toilets"
      }
    },
    {
      "type": "node",
      "id": 6959895820,
      "lat": 51.4301841,
      "lon": 0.0231174,
      "tags": {
        "amenity": "toilets",
        "fee": "no"
      }
    },
    {
      "type": "node",
      "id": 6959895821,
      "lat": 51.4300689,
      "lon": 0.0229508,
      "tags": {
        "amenity": "toilets"
      }
    },
    {
      "type": "node",
      "id": 7014037680,
      "lat": 51.4544431,
      "lon": 0.2468853,
      "tags": {
        "access": "customers",
        "amenity": "toilets",
        "fee": "no",
        "toilets:disposal": "flush",
        "unisex": "yes"
      }
    },
    {
      "type": "node",
      "id": 7043270857,
      "lat": 51.4478145,
      "lon": -0.4109048,
      "tags": {
        "amenity": "toilets"
      }
    },
    {
      "type": "node",
      "id": 7064097406,
      "lat": 51.4322576,
      "lon": -0.5030568,
      "tags": {
        "amenity": "toilets"
      }
    },
    {
      "type": "node",
      "id": 7064097413,
      "lat": 51.4324346,
      "lon": -0.5029161,
      "tags": {
        "amenity": "toilets"
      }
    },
    {
      "type": "node",
      "id": 7103058435,
      "lat": 51.5096991,
      "lon": -0.2215874,
      "tags": {
        "access": "yes",
        "amenity": "toilets",
        "level": "2",
        "toilets:disposal": "flush"
      }
    },
    {
      "type": "node",
      "id": 7141598070,
      "lat": 51.3879673,
      "lon": -0.3433658,
      "tags": {
        "amenity": "toilets"
      }
    },
    {
      "type": "node",
      "id": 7141598071,
      "lat": 51.388056,
      "lon": -0.3438942,
      "tags": {
        "amenity": "toilets"
      }
    },
    {
      "type": "node",
      "id": 7141598073,
      "lat": 51.38821,
      "lon": -0.3431137,
      "tags": {
        "amenity": "toilets"
      }
    },
    {
      "type": "node",
      "id": 7145814248,
      "lat": 51.4803319,
      "lon": -0.195318,
      "tags": {
        "amenity": "toilets"
      }
    },
    {
      "type": "node",
      "id": 7248526917,
      "lat": 51.508263,
      "lon": -0.2729616,
      "tags": {
        "amenity": "toilets",
        "changing_table": "yes",
        "operator": "Morrisons",
        "wheelchair": "yes"
      }
    },
    {
      "type": "node",
      "id": 7249858507,
      "lat": 51.4954923,
      "lon": -0.1395094,
      "tags": {
        "access": "yes",
        "amenity": "toilets",
        "changing_table": "yes",
        "description": "Cathedral Toilets",
        "fee": "no",
        "toilets:disposal": "flush",
        "unisex": "yes",
        "wheelchair": "yes"
      }
    },
    {
      "type": "node",
      "id": 7277606807,
      "lat": 51.6161496,
      "lon": 0.3083127,
      "tags": {
        "access": "yes",
        "amenity": "toilets",
        "changing_table": "no",
        "male": "yes",
        "toilets:disposal": "flush",
        "wheelchair": "yes"
      }
    },
    {
      "type": "node",
      "id": 7277606808,
      "lat": 51.6160276,
      "lon": 0.307849,
      "tags": {
        "access": "yes",
        "amenity": "toilets",
        "changing_table": "no",
        "toilets:disposal": "flush",
        "wheelchair": "yes"
      }
    },
    {
      "type": "node",
      "id": 7277606809,
      "lat": 51.6162518,
      "lon": 0.3075146,
      "tags": {
        "access": "yes",
        "amenity": "toilets",
        "changing_table": "no",
        "male": "yes",
        "toilets:disposal": "flush",
        "wheelchair": "yes"
      }
    },
    {
      "type": "node",
      "id": 7277606810,
      "lat": 51.6160804,
      "lon": 0.3083445,
      "tags": {
        "access": "yes",
        "amenity": "toilets",
        "female": "yes",
        "toilets:disposal": "flush"
      }
    },
    {
      "type": "node",
      "id": 7277606811,
      "lat": 51.6159782,
      "lon": 0.3078614,
      "tags": {
        "access": "yes",
        "amenity": "toilets",
        "changing_table": "no",
        "female": "yes",
        "toilets:disposal": "flush",
        "wheelchair": "yes"
      }
    },
    {
      "type": "node",
      "id": 7296594243,
      "lat": 51.6155314,
      "lon": 0.3077005,
      "tags": {
        "access": "yes",
        "amenity": "toilets",
        "toilets:disposal": "flush"
      }
    },
    {
      "type": "node",
      "id": 7323122485,
      "lat": 51.4915493,
      "lon": -0.009579,
      "tags": {
        "amenity": "toilets"
      }
    },
    {
      "type": "node",
      "id": 7394537046,
      "lat": 51.5608379,
      "lon": 0.2204433,
      "tags": {
        "amenity": "toilets",
        "unisex": "yes"
      }
    },
    {
      "type": "node",
      "id": 7452731809,
      "lat": 51.3435311,
      "lon": -0.4709878,
      "tags": {
        "amenity": "toilets",
        "building": "yes"
      }
    },
    {
      "type": "node",
      "id": 7469449168,
      "lat": 51.6432516,
      "lon": 0.0870042,
      "tags": {
        "access": "customers",
        "amenity": "toilets",
        "level": "1"
      }
    },
    {
      "type": "node",
      "id": 7537285496,
      "lat": 51.4483925,
      "lon": -0.1386482,
      "tags": {
        "amenity": "toilets"
      }
    },
    {
      "type": "node",
      "id": 7556986464,
      "lat": 51.5464189,
      "lon": 0.0856322,
      "tags": {
        "access": "yes",
        "amenity": "toilets",
        "changing_table": "yes",
        "unisex": "yes",
        "wheelchair": "yes"
      }
    },
    {
      "type": "node",
      "id": 7556986465,
      "lat": 51.5463872,
      "lon": 0.0856259,
      "tags": {
        "access": "yes",
        "amenity": "toilets",
        "male": "yes",
        "wheelchair": "no"
      }
    },
    {
      "type": "node",
      "id": 7556986466,
      "lat": 51.5463756,
      "lon": 0.0856384,
      "tags": {
        "amenity": "toilets",
        "female": "yes",
        "wheelchair": "no"
      }
    },
    {
      "type": "node",
      "id": 7600338591,
      "lat": 51.3879272,
      "lon": -0.2513116,
      "tags": {
        "amenity": "toilets",
        "female": "yes",
        "male": "yes"
      }
    },
    {
      "type": "node",
      "id": 7612629079,
      "lat": 51.5415344,
      "lon": -0.238287,
      "tags": {
        "amenity": "toilets"
      }
    },
    {
      "type": "node",
      "id": 7626048804,
      "lat": 51.5030387,
      "lon": -0.1535612,
      "tags": {
        "amenity": "toilets",
        "name": "Hyde Park Corner Toilets"
      }
    },
    {
      "type": "node",
      "id": 7626126612,
      "lat": 51.5030387,
      "lon": -0.1535612,
      "tags": {
        "amenity": "toilets",
        "name": "Hyde Park Corner Toilets"
      }
    },
    {
      "type": "node",
      "id": 7649663743,
      "lat": 51.3239846,
      "lon": -0.4711568,
      "tags": {
        "access": "customers",
        "amenity": "toilets"
      }
    },
    {
      "type": "node",
      "id": 7683572941,
      "lat": 51.4885621,
      "lon": 0.1278334,
      "tags": {
        "access": "yes",
        "amenity": "toilets",
        "fee": "no",
        "female": "yes",
        "male": "yes"
      }
    },
    {
      "type": "node",
      "id": 7699204186,
      "lat": 51.5138845,
      "lon": -0.1524696,
      "tags": {
        "amenity": "toilets",
        "opening_hours": "off"
      }
    },
    {
      "type": "node",
      "id": 7736348947,
      "lat": 51.3822091,
      "lon": -0.4586886,
      "tags": {
        "amenity": "toilets"
      }
    },
    {
      "type": "node",
      "id": 7747003063,
      "lat": 51.3921446,
      "lon": -0.3044304,
      "tags": {
        "access": "yes",
        "amenity": "toilets",
        "changing_table": "no",
        "unisex": "yes",
        "wheelchair": "yes"
      }
    },
    {
      "type": "node",
      "id": 7747003064,
      "lat": 51.3921496,
      "lon": -0.3044217,
      "tags": {
        "access": "yes",
        "amenity": "toilets",
        "changing_table": "no",
        "female": "yes",
        "wheelchair": "no"
      }
    },
    {
      "type": "node",
      "id": 7747003065,
      "lat": 51.3923254,
      "lon": -0.3045558,
      "tags": {
        "access": "yes",
        "amenity": "toilets",
        "changing_table": "no",
        "unisex": "yes",
        "wheelchair": "yes"
      }
    },
    {
      "type": "node",
      "id": 7747003066,
      "lat": 51.39233,
      "lon": -0.3045471,
      "tags": {
        "access": "yes",
        "amenity": "toilets",
        "changing_table": "no",
        "female": "yes",
        "wheelchair": "no"
      }
    },
    {
      "type": "node",
      "id": 7770427017,
      "lat": 51.5404119,
      "lon": -0.0328378,
      "tags": {
        "amenity": "toilets"
      }
    },
    {
      "type": "node",
      "id": 7777390977,
      "lat": 51.5387293,
      "lon": -0.0344502,
      "tags": {
        "amenity": "toilets"
      }
    },
    {
      "type": "node",
      "id": 7787693082,
      "lat": 51.5365961,
      "lon": -0.1265322,
      "tags": {
        "access": "yes",
        "amenity": "toilets",
        "level": "-1"
      }
    },
    {
      "type": "node",
      "id": 7787693083,
      "lat": 51.5353273,
      "lon": -0.126209,
      "tags": {
        "access": "yes",
        "amenity": "toilets",
        "level": "-1"
      }
    },
    {
      "type": "node",
      "id": 7802006785,
      "lat": 51.2721499,
      "lon": 0.4015562,
      "tags": {
        "amenity": "toilets"
      }
    },
    {
      "type": "node",
      "id": 7851393408,
      "lat": 51.4820181,
      "lon": -0.1940872,
      "tags": {
        "access": "private",
        "amenity": "toilets",
        "male": "yes",
        "wheelchair": "yes"
      }
    },
    {
      "type": "node",
      "id": 7851393410,
      "lat": 51.4822616,
      "lon": -0.1944694,
      "tags": {
        "access": "private",
        "amenity": "toilets",
        "male": "yes",
        "wheelchair": "yes"
      }
    },
    {
      "type": "node",
      "id": 7876516362,
      "lat": 51.4711968,
      "lon": -0.2784582,
      "tags": {
        "amenity": "toilets"
      }
    },
    {
      "type": "node",
      "id": 7891050276,
      "lat": 51.5093298,
      "lon": -0.1592778,
      "tags": {
        "access": "customers",
        "amenity": "toilets",
        "fee": "no",
        "level": "-1",
        "male": "yes"
      }
    },
    {
      "type": "node",
      "id": 7891050281,
      "lat": 51.50929,
      "lon": -0.1592603,
      "tags": {
        "access": "customers",
        "amenity": "toilets",
        "fee": "no",
        "female": "yes",
        "level": "-1"
      }
    },
    {
      "type": "node",
      "id": 7902557338,
      "lat": 51.3730516,
      "lon": 0.0894507,
      "tags": {
        "access": "customers",
        "amenity": "toilets",
        "fee": "no",
        "female": "yes",
        "male": "no",
        "operator": "Southeastern",
        "toilets:disposal": "flush",
        "unisex": "no"
      }
    },
    {
      "type": "node",
      "id": 7902557339,
      "lat": 51.3730193,
      "lon": 0.0894773,
      "tags": {
        "access": "customers",
        "amenity": "toilets",
        "fee": "no",
        "female": "yes",
        "male": "no",
        "operator": "Southeastern",
        "toilets:disposal": "flush",
        "unisex": "no"
      }
    },
    {
      "type": "node",
      "id": 7917893442,
      "lat": 51.4901992,
      "lon": -0.1689543,
      "tags": {
        "amenity": "toilets"
      }
    },
    {
      "type": "node",
      "id": 7917893447,
      "lat": 51.4901607,
      "lon": -0.1689452,
      "tags": {
        "amenity": "toilets"
      }
    },
    {
      "type": "node",
      "id": 7923513634,
      "lat": 51.5697743,
      "lon": 0.3747284,
      "tags": {
        "amenity": "toilets"
      }
    }
  ]
}